id,title,cuisine,phone,feature,zipcode,street_addr
2230,Casa Flores, Italian,4084756895,"reservations, goodForGroups, waiterService, caters",94109,1808 California street
2231,Californios," Mexican,Seafood,Salad",4157570994,"reservations, creditCard, applePay, waiterService",94110,3115 22nd street
2232,Lazy Bear, American (New),4158749921,"reservations, creditCard, bikeParking, goodForGroups, waiterService",94110,3416 19th street
2233,Ijji Sushi," Sushi Bars,Japanese",4156587388,"reservations, creditCard, waiterService",94117,252 Divisadero street
2234,Omakase," Sushi Bars,Japanese",4158650633,"reservations, creditCard, bikeParking, waiterService",94103,665 Townsend street
2235,An Japanese Restaurant," Sushi Bars,Japanese",4152924886,"reservations, creditCard, bikeParking, waiterService",94115,22 Peace Plz
2236,jū-ni," Japanese,Sushi Bars",4156559924,"reservations, creditCard, waiterService",94117,1335 Fulton street
2237,Acquerello, Italian,4155675432,"reservations, creditCard, waiterService",94109,1722 Sacramento street
2238,KUSAKABE," Sushi Bars,Japanese",4157570155,"reservations, creditCard, bikeParking, waiterService",94111,584 Washington street
2239,Wako Japanese Restaurant," Japanese,Sushi Bars",4156824875,"reservations, creditCard, bikeParking, waiterService",94118,211 Clement street
2240,Kiss Seafood," Japanese,Sushi Bars,Seafood",4154742866,"reservations, creditCard, bikeParking, waiterService",94115,1700 Laguna street
2241,Gary Danko," American (New),French",4157492060,"reservations, creditCard, goodForGroups, waiterService",94109,800 N Point street
2242,La Folie, French,4157765577,"reservations, creditCard, waiterService",94109,2316 Polk street
2243,EatWith, Supper Clubs,,"reservations, creditCard, bikeParking, goodForGroups, waiterService",94103,
2244,Benu," American (New),Asian Fusion,Wine Bars",4156854860,"reservations, creditCard, goodForGroups, waiterService",94105,22 Hawthorne street
2245,Keiko à Nob Hill," French,American (New)",4158297141,"reservations, creditCard, waiterService",94109,1250 Jones street
2246,Spruce, American (Traditional),4159315100,"reservations, takeout, creditCard, goodForGroups, waiterService, caters",94118,3640 Sacramento street
2247,Jardiniere," French,American (New),Champagne Bars",4158615555,"reservations, creditCard, goodForGroups, waiterService, caters",94102,300 Grove street
2248,Atelier Crenn, French,4154400460,"reservations, creditCard, waiterService",94123,3127 Fillmore street
2249,Hinata," Sushi Bars,Japanese",4158298291,"reservations, creditCard, waiterService",94109,810 Van Ness avenue
2250,Mosu," American (New),Asian Fusion",4157357303,"reservations, creditCard, waiterService",94115,1552 Fillmore street
2251,OzaOza, Japanese,4156744400,"reservations, creditCard, goodForKids, waiterService",94115,1700 Post street
2252,Harris’ Restaurant, Steakhouses,4156731888,"reservations, creditCard, goodForGroups, waiterService",94109,2100 Van Ness avenue
2253,Hashiri," Japanese,Sushi Bars",4159081919,"reservations, creditCard, applePay, goodForGroups, waiterService",94103,4 Mint Plz
2254,Sons &amp; Daughters, American (New),4153918311,"reservations, creditCard, waiterService",94108,708 Bush street
2255,Saison, American (New),4158287990,"reservations, creditCard, applePay, bikeParking, waiterService",94107,178 Townsend street
2256,The Progress," American (New),Bars",4156731294,"reservations, creditCard, bikeParking, goodForGroups, waiterService",94115,1525 Fillmore street
2257,Maruya," Japanese,Sushi Bars",4155030702,"reservations, creditCard, waiterService",94103,2931 16th street
2258,Campton Place Restaurant," American (New),Indian,Bars",4157815555,"reservations, creditCard, goodForGroups, waiterService",94108,340 Stockton street
2259,Quince," French,Italian",4157758500,"reservations, creditCard, goodForGroups, waiterService",94133,470 Pacific avenue
2260,The Big 4," Lounges,American (New),Breakfast & Brunch",4157711140,"reservations, creditCard, bikeParking, goodForGroups, waiterService",94108,1075 California street
2261,Roka Akor," Steakhouses,Japanese,Cocktail Bars",4153628887,"takeout, creditCard, bikeParking, goodForGroups, hasTV, waiterService, caters",94133,801 Montgomery street
2262,Osso Steakhouse," Steakhouses,Seafood",4157716776,"reservations, takeout, creditCard, applePay, goodForGroups, waiterService",94108,1177 California street
2263,H.Q. Milton," Jewelry,Watches",4158487464,"creditCard, bikeParking",94110,2318 Mission street
2264,Boulevard," French,American (New)",4155436084,"reservations, creditCard, goodForGroups, waiterService",94105,1 Mission street
2265,Farallon, Seafood,4159566969,"reservations, creditCard, bikeParking, goodForGroups, waiterService",94102,450 Post street
2266,Brücius Tattoo, Tattoo,4154980784,"creditCard, applePay, bikeParking",94103,377 Guerrero street
2267,Sasaki," Sushi Bars,Japanese",4158298997,"reservations, creditCard, waiterService",94110,2400 Harrison street
2268,Nightbird, American (New),4158297565,"reservations, creditCard, goodForGroups, waiterService",94102,330 Gough street
2269,The Phoenix Supper Club," American (New),Venues & Event Spaces",4152828200,"reservations, creditCard, bikeParking, goodForGroups, waiterService",94103,
2270,Michael Mina, American (New),4153979222,"reservations, creditCard, goodForGroups, waiterService",94111,252 California street
2271,Petit Crenn, French,4158641744,"reservations, creditCard, bikeParking, outdoorSeating, waiterService",94102,609 Hayes street
2272,Alexander’s Steakhouse, Steakhouses,4154951111,"reservations, creditCard, bikeParking, goodForGroups, waiterService",94107,448 Brannan street
2273,Parallel 37, American (New),4157736168,"reservations, creditCard, bikeParking, goodForGroups, hasTV, waiterService",94108,600 Stockton Street
2274,Mister Jiu’s, Chinese,4158579688,"reservations, creditCard, bikeParking, goodForGroups, waiterService",94108,28 Waverly Pl
2275,Coi," American (New),Seafood",4153939000,"reservations, creditCard, waiterService",94133,373 Broadway
2276,Skull &amp; Sword, Tattoo,4155524297,bikeParking,94110,3415 Cesar Chavez
2277,Professional Makeup Artistry, Makeup Artists,9252403360,creditCard,94107,400 Brannan street
2278,Beluga," Russian,Dance Clubs",4153793903,"reservations, delivery, takeout, creditCard, goodForKids, goodForGroups, hasTV, waiterService, caters",94121,5323 Geary boulevard
2279,"Larry Fan, MD | 77 Plastic Surgery"," Cosmetic Surgeons,Medical Spas,Skin Care",4156557546,"creditCard, bikeParking",94102,77 Van Ness avenue
2280,SubCulture Dining, American (New),4158168787,"reservations, creditCard, goodForGroups, waiterService",94111,
2281,Morton’s The Steakhouse, Steakhouses,4159865830,"reservations, creditCard, bikeParking, goodForGroups, hasTV, waiterService",94102,400 Post street Lower Level
2282,Jehr Schiavo Haute Coiffure, Hair Stylists,8777244286,"creditCard, bikeParking, goodForKids",94115,
2283,Self Edge, Men's Clothing,4155580658,"creditCard, applePay, bikeParking",94110,714 Valencia street
2284,"Kenneth Bermudez, MD"," Cosmetic Surgeons,Medical Spas",4156682122,"creditCard, bikeParking",94118,525 Spruce street
2285,The Bimini Twist," Personal Chefs,American (New)",4154951900,"reservations, creditCard, bikeParking, goodForGroups, waiterService, caters",94107,188 King street PH7
2286,Reform Club, American (New),4156896446,"reservations, creditCard, goodForGroups, waiterService",94110,2331 Mission street
2287,Spectacles for Humans," Eyewear & Opticians,Fashion",4153410218,"creditCard, bikeParking",94114,3862 24th street
2288,66Mint Fine Estate Jewelry, Jewelry,4159824402,creditCard,94103,66 Mint street
2289,Agent Provocateur," Lingerie,Swimwear,Bridal",4154210229,"creditCard, bikeParking",94108,54 Geary street
2290,Jai Yun, Chinese,4159817438,"reservations, creditCard, goodForGroups, waiterService",94111,680 Clay street
2291,The St. Regis San Francisco, Hotels,4152844000,creditCard,94103,125 3rd Street
2292,Samuel Scheuer Linens," Home Decor,Rugs",4153922813,creditCard,94108,340 Sutter street
2293,Four Seasons Hotel San Francisco, Hotels,4156333000,creditCard,94103,757 Market street
2294,Charin, American (New),4154390982,"reservations, creditCard, waiterService",94110,2124 Folsom street
2295,Villa Taverna, Italian,4159812333,"reservations, creditCard, goodForGroups, waiterService",94111,27 Hotaling Pl
2296,Bespoke Cycles," Bikes,Bike Repair/Maintenance",4156425652,"creditCard, bikeParking",94115,2843 Clay street
2297,Vera Wang, Bridal,4154000370,"creditCard, bikeParking",94108,180 Geary street
2298,Mission D&amp;A, Pop-Up Restaurants,,"reservations, creditCard, bikeParking, goodForGroups, waiterService",94110,2817 24th street
2299,"Scott W Mosser, MD"," Cosmetic Surgeons,Medical Spas",4153987778,creditCard,94108,450 Sutter street
2300,Bulgari," Jewelry,Watches,Bridal",4153999141,"creditCard, bikeParking",94108,200 Stockton street
2301,SF Moto," Motorcycle Dealers,Motorcycle Repair,Motorcycle Gear",4152553132,"creditCard, bikeParking",94103,275 8th street
2302,San Francisco Art Exchange, Art Galleries,4154418840,"creditCard, bikeParking",94102,458 Geary street
2303,Khai, Vietnamese,4157242325,"reservations, creditCard, bikeParking, waiterService",94103,655 Townsend street
2304,Music Lovers Audio &amp; Video," Electronics,Home Theatre Installation",4153458111,"creditCard, bikeParking",,
2305,Velvet Da Vinci, Art Galleries,4154410109,"creditCard, bikeParking",94109,2015 Polk street
2306,J. Roland," Hair Salons,Barbers",4153922969,creditCard,94108,161 Sutter street
2307,Babu Ji, Indian,4155254857,"reservations, creditCard, goodForGroups, waiterService",94103,280 Valencia street
2308,The Archive," Men's Clothing,Leather Goods,Jewelry",4153915550,"creditCard, applePay",94108,317 Sutter street
2309,"The Ritz-Carlton, San Francisco"," Hotels,Venues & Event Spaces",4152967465,creditCard,94108,600 Stockton street
2310,Remède Spa," Day Spas,Massage",4152844060,"creditCard, bikeParking",94103,125 3rd street
2311,Bottega Veneta, Leather Goods,4159811700,"creditCard, bikeParking",94108,108 Geary street
2312,Le Labo, Cosmetics & Beauty Supply,4159313212,"creditCard, bikeParking",94115,2238 Fillmore street
2313,DZINE," Furniture Stores,Interior Design,Home Decor",6284006016,"creditCard, bikeParking",,
2314,PS Cleaners, Dry Cleaning & Laundry,4156817747,,94122,1148 Irving street
2315,Sterling Art Services," Framing,Art Galleries",4158635800,"creditCard, bikeParking, goodForKids",94103,42 Norfolk street
2316,HAND in HAND Custom Jewelry Design," Jewelry,Bridal",4152824370,creditCard,94110,3150 18th street
2317,Herve Leger, Women's Clothing,4152849168,"creditCard, bikeParking",94102,331 Powell street
2318,Contractors Appliance Source, Appliances,4156688484,"creditCard, bikeParking",94118,3460 Geary boulevard
2319,McRoskey Mattress Company," Furniture Stores,Mattresses",4158614532,creditCard,94103,1687 Market street
2320,Vendetta Mens Apparel &amp; Vintage Cuban Cigars," Tobacco Shops,Men's Clothing",4153977755,"creditCard, bikeParking",94108,950 Mason street
2321,John Pence Gallery, Art Galleries,4154411138,creditCard,94109,750 Post Street
2322,Rimowa, Luggage,4152302688,"creditCard, bikeParking",94108,259 Post street
2323,AudioVision," Electronics,High Fidelity Audio Equipment",4159159855,creditCard,94109,1628 California street
2324,Pacific Heights Plastic Surgery," Cosmetic Surgeons,Skin Care,Medical Spas",4159233005,"creditCard, bikeParking",94115,2100 Webster street
2325,Lisa Lefkowitz Photography," Photography Stores & Services,Photographers",4158269330,creditCard,94118,3516 Sacramento street
2326,Southern Exposure," Art Galleries,Community Service/Non-Profit",4158632141,"creditCard, bikeParking",94110,3030 20th street
2327,Le Sanctuaire, Kitchen & Bath,4159864216,creditCard,94108,315 Sutter street
2328,FRJ Lashes," Eyelash Service,Waxing",4155962896,"creditCard, bikeParking",94109,1007 Sutter street
2329,Leica Store, Photography Stores & Services,4158015066,"creditCard, bikeParking",94108,463 Bush street
2330,Beneduci Shoemakers, Shoe Stores,4157420005,"creditCard, bikeParking",94110,797 San Jose avenue
2331,Tourbillon Boutique," Watches,Jewelry",4153621525,"creditCard, bikeParking",94108,231 Post street
2332,San Francisco Art Institute," Colleges & Universities,Art Schools,Art Galleries",4157717020,"creditCard, bikeParking, goodForKids",94133,800 Chestnut street
2333,Precita Market &amp; Deli," Convenience Stores,Delis",4158212113,"delivery, creditCard, goodForKids, goodForGroups",94110,35 Precita avenue
2334,Tiffany &amp; Co, Jewelry,4157817000,"creditCard, bikeParking",94108,350 Post street
2335,SF Bridal Makeup," Makeup Artists,Hair Stylists",4156064492,"creditCard, goodForKids",94103,161 Gilbert street
2336,Marina Morrison," Bridal,Accessories",4159849360,creditCard,94108,30 Maiden Ln
2337,Mill Mercantile," Women's Clothing,Home Decor,Children's Clothing",4154018920,"creditCard, bikeParking",94114,3751 24th street
2338,Chanel Boutique," Women's Clothing,Accessories,Cosmetics & Beauty Supply",4159811550,creditCard,94108,156 Geary street
2339,Eric Ripert@Aqua, Seafood,4159569662,"reservations, creditCard, goodForGroups, waiterService",94111,252 California street
2340,Saks Fifth Avenue Men’s Store, Men's Clothing,4159864300,creditCard,94108,384 Post street
2341,Dottie Doolittle," Children's Clothing,Toy Stores",4155633244,"creditCard, bikeParking",94118,3680 Sacramento street
2342,Roche-Bobois, Furniture Stores,4156268613,"creditCard, bikeParking",94103,701 8th street
2343,Weinstein Gallery, Art Galleries,4153628151,creditCard,94102,383 Geary street
2344,"Fairmont Heritage Place, Ghirardelli Square", Hotels,4152689900,creditCard,94109,900 North Point
2345,Jimmy Choo, Women's Clothing,4153913300,"creditCard, bikeParking",94108,164 Geary street
2346,EZ Brow &amp; Beauty," Skin Care,Waxing,Threading Services",4158496080,creditCard,94115,1820 Fillmore street
2347,RTB Fillmore," American (Traditional),Asian Fusion,Pop-Up Restaurants",,"reservations, creditCard, applePay, bikeParking, goodForKids, waiterService, caters",94105,71 Stevenson street
2348,Taylor Pham," Makeup Artists,Hair Salons",,,,
2349,Christian Louboutin, Shoe Stores,4156589079,"creditCard, applePay",94108,29 Maiden Lane
2350,Cherish Yourself Massage Services, Massage,4158759510,creditCard,94114,4248 - 20th street
2351,Le Point," Women's Clothing,Men's Clothing,Accessories",4154004275,creditCard,94103,301 Valencia street
2352,Neiman Marcus," Men's Clothing,Women's Clothing,Shoe Stores",4153623900,creditCard,94108,150 Stockton street
2353,Hermès," Women's Clothing,Accessories,Leather Goods",4153917200,creditCard,94108,125 Grant avenue
2354,Saint Laurent, Accessories,4157650975,"creditCard, bikeParking",94108,108 Geary street
2355,Ritz Carlton Club," Venues & Event Spaces,Hotels",,creditCard,94105,658 Market street
2356,ROLO on Market, Men's Clothing,4154314545,creditCard,94114,2351 Market street
2357,Coup d’Etat, Antiques,4152419300,"creditCard, bikeParking",94103,111 Rhode Island street
2358,Barneys New York," Men's Clothing,Women's Clothing,Shoe Stores",4152683500,"creditCard, applePay",94108,77 O&#39;Farrell street
2359,Van Cleef &amp; Arpels," Jewelry,Watches",4153623900,"creditCard, bikeParking",94108,150 Stockton street
2360,Kent Cleaners, Dry Cleaning & Laundry,4157515478,creditCard,94118,601 3rd avenue
2361,Saks Fifth Avenue," Women's Clothing,Accessories,Shoe Stores",4159864300,"creditCard, applePay, bikeParking",94108,384 Post street
2362,Adore Organic Innovations," Cosmetics & Beauty Supply,Skin Care",8443777753,"creditCard, bikeParking",94102,188 Ofarrell street
2363,Modernist," Supper Clubs,Cocktail Bars,Social Clubs",,"reservations, creditCard, goodForGroups, waiterService",94105,139 Steuart street
2364,Martin Lawrence Galleries, Art Galleries,4159560345,creditCard,94102,366 Geary street
2365,Steven’s Manufacturing Jewelers," Gold Buyers,Watches,Jewelry Repair",4153988783,bikeParking,94102,490 Post street
2366,Golden Gate Needlepoint, Arts & Crafts,4153458779,creditCard,94118,3310 Sacramento street
2367,Christopher Clark Fine Art, Art Galleries,4153977781,"creditCard, bikeParking, goodForKids",,
2368,Uomo European Menswear, Men's Clothing,4159898666,"creditCard, bikeParking",94108,475 Sutter street
2369,Burberry," Women's Clothing,Accessories,Men's Clothing",4153922200,creditCard,94108,225 Post street
2370,NeoCocoa, Chocolatiers & Shops,,creditCard,94110,2948 Folsom street
2371,The Painters Place," Framing,Home Decor",4154319827,"creditCard, bikeParking",94103,283 9th street
2372,Gucci," Men's Clothing,Women's Clothing,Leather Goods",4153922808,"creditCard, applePay, bikeParking",94108,240 Stockton street
2373,Optica," Eyewear & Opticians,Accessories",4158961239,creditCard,,
2374,Shapur Mozaffarian Fine Jewelry," Jewelry,Watches",4153921200,creditCard,94108,272 Post street
2375,Goyard," Leather Goods,Luggage,Accessories",4155238200,"creditCard, applePay, bikeParking",94108,118 Grant avenue
2376,Xetum, Watches,8003856238,creditCard,94102,760 Market street
2377,Rebecca Beeson Collection Tees, Women's Clothing,4158650471,creditCard,94103,1345 Howard street
2378,Rolex, Watches,4159741846,creditCard,,
2379,Bohemian Club," Performing Arts,Art Galleries",4158852440,,94102,624 Taylor street
2380,Wilkes Bashford," Men's Clothing,Women's Clothing,Accessories",4159864380,"creditCard, bikeParking",94108,375 Sutter street
2381,Pi Pizza, Food Delivery Services,,creditCard,,?
2382,DeBoudoir," Wedding Planning,Makeup Artists",8668926331,creditCard,94109,755 Sutter street
2383,Gump’s," Jewelry,Home Decor,Furniture Stores",4159821616,creditCard,94108,135 Post street
2384,Susan San Francisco-Burlingame," Women's Clothing,Leather Goods,Accessories",4159223685,"creditCard, bikeParking",94118,3685 Sacramento street
2385,Cartier," Jewelry,Watches,Accessories",4153973180,"creditCard, bikeParking",94108,250 Post street
2386,Louis Vuitton San Francisco Neiman Marcus, Leather Goods,4153999001,"creditCard, bikeParking",94108,150 Stockton street
2387,Robert R Johnson Coin and Stamp Co," Hobby Shops,Gold Buyers",4154219701,bikeParking,94103,5 3rd Street
2388,Walnut Cleaners, Dry Cleaning & Laundry,4159210495,"creditCard, bikeParking",94123,2266 Chestnut street
2389,Spaghetti Ravioli Hair Salon, Hair Salons,,,94109,1204 Sutter street
2390,Magnolia Audio Video Design Center," Home Theatre Installation,Electronics",4155751022,"creditCard, bikeParking",94103,1717 Harrison street
2391,Louis Vuitton San Francisco Union Square, Leather Goods,4153916200,creditCard,94102,233 Geary street
2392,Fujiya Cosmetics NW3, Cosmetics & Beauty Supply,4155639888,creditCard,94115,1662 Post street
2393,Moncler," Women's Clothing,Men's Clothing,Accessories",6282217945,creditCard,94108,212 Stockton street
2394,BSC Culinary Resource, Appliances,4156266246,"creditCard, bikeParking",94103,1665 Mission street
2395,Elizabeth Charles, Women's Clothing,4154402100,creditCard,94115,2056 Fillmore street
2396,Biro &amp; Sons Silversmiths, Antiques,4154313480,bikeParking,94103,1160 Folsom street
2397,Chaps," Men's Clothing,Women's Clothing,Children's Clothing",4158631699,"creditCard, bikeParking",94114,4057 18th street
2398,Analog Tattoo Arts Kolectiv SF, Art Galleries,4159326250,"creditCard, bikeParking",94109,1038 Larkin street
2399,House of Music," Electronics,Home Theatre Installation",4152550888,"creditCard, bikeParking",,
2400,Hosfelt Gallery, Art Galleries,4154955454,"creditCard, goodForKids",94103,260 Utah street
2401,B&amp;B Italia," Home Decor,Furniture Stores,Furniture Assembly",4155650900,"delivery, creditCard, bikeParking",94103,2211 Alameda street
2402,Thos. Moser Cabinetmakers, Furniture Stores,4159318131,creditCard,94118,3395 Sacramento street
2403,Shreve &amp; Co.," Jewelry,Watches,Jewelry Repair",4154212600,"creditCard, bikeParking",94108,150 Post street
2404,Venezia Fine Arts &amp; Antiques," Antiques,Art Galleries",6284006004,creditCard,94108,430 Grant avenue
2405,St. John Boutique, Women's Clothing,4158560420,creditCard,94103,"767A Market Street, Suite B"
2406,Food Guru GraceAnn Walden’s Walking Tours," Tours,Food",4153025898,,94133,
2407,Sue Fisher King," Home Decor,Furniture Stores",4159227276,"creditCard, applePay",94115,3067 Sacramento street
2408,Park Plaza Fine Foods," Grocery,Delis",6284006077,"delivery, takeout, creditCard, bikeParking, goodForKids, goodForGroups, hasTV, caters",94132,111 Cambon Dr
2409,One Hour Cleaners, Dry Cleaning & Laundry,4155526035,creditCard,94114,2233 Market street
2410,Alexander McQueen," Women's Clothing,Men's Clothing",4159562721,"creditCard, bikeParking",94108,58 Geary street
2411,Montblanc," Accessories,Leather Goods,Watches",4154034000,"creditCard, bikeParking",94108,120 Grant Avenue
2412,Gallery 444, Art Galleries,4154344477,creditCard,,
2413,Ocularium The, Eyewear & Opticians,4155632475,creditCard,94123,2336 Chestnut street
2414,April In Paris, Leather Goods,4157509910,creditCard,94118,15 Clement street
2415,Vine Vera, Skin Care,,"creditCard, bikeParking",94108,60 Grant street
2416,Living Green Design," Nurseries & Gardening,Gardeners",4158642251,"creditCard, bikeParking",94124,1465 Custer avenue
2417,Verizon," Mobile Phones,Internet Service Providers,Mobile Phone Accessories",4156958400,"creditCard, bikeParking",94110,2654 Mission street
2418,Andy Goldsworthy’s Spire," Hiking,Art Galleries",4155615300,"applePay, bikeParking, goodForKids",94129,
2419,Caldwell Snyder Gallery, Art Galleries,4153922299,creditCard,94108,341 Sutter street
2420,The Art of Dr. Seuss - Dennis Rae Fine Art, Art Galleries,4153911948,"creditCard, goodForKids",94102,351-A Geary street
2421,Candace Barnes," Antiques,Interior Design",4154311018,"creditCard, bikeParking",94103,2013 17th street
2422,Will Leather Goods ‘Self Expression’," Leather Goods,Accessories",4156901188,"creditCard, bikeParking",94102,568 Hayes street
2423,Dwell Magazine, Newspapers & Magazines,4153735100,creditCard,94133,550 Kearny street
2424,Guitar Center Lessons, Musical Instruments & Teachers,4154090350,creditCard,94109,1645 Van Ness avenue
2425,Serge Sorokko Gallery, Art Galleries,4154217770,"creditCard, goodForKids",94108,55 Geary street
2426,Clean Plus Cleaners, Dry Cleaning & Laundry,4157513262,creditCard,94118,57 Clement street
2427,Blinks+Brows - San Francisco," Eyelash Service,Eyebrow Services,Permanent Makeup",4158451898,"creditCard, bikeParking",94109,1901 Van Ness avenue
2428,Jade Galore," Jewelry,Watches",4157029388,"creditCard, bikeParking",94132,3251 20th avenue
2429,"Michael I Kulick, MD"," Cosmetic Surgeons,Skin Care",4159562550,creditCard,94108,450 Sutter street
2430,Modernism, Art Galleries,4155410461,"creditCard, goodForKids",94109,724 Ellis street
2431,Duxiana, Mattresses,4156737134,creditCard,94115,1803 Fillmore street
2432,JPegs, Do-It-Yourself Food,,bikeParking,94108,630 Mason street
2433,Equinox Sports Club San Francisco," Gyms,Sports Clubs,Day Spas",4156333900,"creditCard, bikeParking",94103,747 Market street
2434,Studio Gallery, Art Galleries,4159313130,"creditCard, bikeParking, goodForKids",94109,1641 Pacific avenue
2435,Michael Fine Art and Antique," Art Galleries,Antiques",6284005789,"creditCard, bikeParking",94108,400 Grant avenue
2436,Salvatore Ferragamo," Shoe Stores,Leather Goods,Women's Clothing",4153916565,"creditCard, bikeParking",94115,236 Post street
2437,Tory Burch, Fashion,4153981525,creditCard,94108,50 Maiden Ln
2438,5 Claude Lane," Art Galleries,Venues & Event Spaces",,"creditCard, goodForKids",94108,5 Claude Ln
2439,Mini Facial Lounge, Skin Care,4155624569,creditCard,94112,
2440,IGN Entertainment, Videos & Video Game Rental,,"creditCard, applePay, bikeParking",94107,625 2nd street
2441,MDVII Antiques," Antiques,Jewelry",4159314213,,94109,1507 1/2 Vallejo street
2442,Suzanne Sizer Photography," Photographers,Bridal",4155186537,,94109,
2443,Cielo-European Clothing," Women's Clothing,Accessories",4157760641,creditCard,94115,2225 Fillmore Street
2444,Japonesque Gallery, Art Galleries,4153918860,"creditCard, goodForKids",94133,824 Montgomery street
2445,ZK Gallery, Art Galleries,4156321036,"creditCard, bikeParking, goodForKids",94133,213 Jefferson street
2446,Whistle," Accessories,Home Decor,Gift Shops",4153790199,"creditCard, bikeParking",94122,1311 16th avenue
2447,Ligne Roset, Furniture Stores,4157771030,"creditCard, bikeParking",94107,162 King Street
2448,SF Body Today, Massage,9712192379,,94123,1528 Union street
2449,Louis Vuitton San Francisco Bloomingdale’s," Leather Goods,Eyewear & Opticians",4159570649,"creditCard, bikeParking",,
2450,AT&amp;T, Mobile Phones,4153464044,"creditCard, bikeParking",94123,2135 Union street
2451,Tongwong Coffee, Coffee & Tea,,,94103,110 5th Street 2nd Fl
2452,Sallumeh Boutique," Women's Clothing,Accessories,Leather Goods",4152737777,"creditCard, bikeParking",94111,Two Embarcadero Ctr
2453,"Emily, Organic Colorist and Stylist", Hair Stylists,4156336605,"creditCard, bikeParking",94117,
2454,Nob Hill Restaurant, American (New),4153923434,"reservations, creditCard, goodForKids, goodForGroups, waiterService",94108,999 California street
2455,CH Carolina Herrera," Women's Clothing,Accessories,Eyewear & Opticians",4159863000,creditCard,94108,45 Grant avenue
2456,Tiffany &amp; Co., Jewelry,4155363960,creditCard,,
2457,Specs in The City &amp; Cheaters Too, Eyewear & Opticians,4152528262,"creditCard, bikeParking",94114,4126 18th street
2458,Pirates Press," Music & DVDs,Professional Services,Music Venues",4157382268,"creditCard, goodForGroups",94107,1301 17th street
2459,Best Collateral, Pawn Shops,4159579917,creditCard,94103,1024 Mission street
2460,Smoke Plus, Tobacco Shops,4158637427,"creditCard, bikeParking",94114,4059 18th street
2461,Franklin Bowles Galleries, Art Galleries,4154418008,"creditCard, bikeParking",94109,765 Beach street
2462,Gagosian, Art Galleries,4155463990,"creditCard, bikeParking",94105,657 Howard street
2463,Gloria’s Cleaners, Dry Cleaning & Laundry,4153340400,creditCard,94132,2671 Ocean Avenue
2464,"Jesse Maschmeyer Violins, LLC"," Musical Instruments & Teachers,Musical Instrument Services",4158715013,"creditCard, bikeParking",94102,512 Van Ness avenue
2465,Altman Siegel, Art Galleries,4155769300,,94107,1150 25th street
2466,BlueSky Buyers," Jewelry,Pawn Shops",4158615288,"creditCard, bikeParking",94103,868 Brannan street
2467,Blu," Women's Clothing,Accessories",4157760643,creditCard,94115,3228 Sacramento street
2468,Scissors &amp; Cloth, Men's Clothing,4155956325,"creditCard, bikeParking",94102,860 Geary street
2469,Vic’s Grocery, Grocery,4155500716,creditCard,94110,3300 26th street
2470,Max Mara, Women's Clothing,4159810900,creditCard,94108,175 Post street
2471,Zephyr Ventilation Showroom, Kitchen & Bath,4155528033,,94103,2277 Alameda street
2472,Twenty Four Twelve Fillmore - A Hair Studio, Hair Salons,4159222412,,94115,2412 Fillmore street
2473,Christian Dior," Women's Clothing,Leather Goods,Jewelry",4153982204,"creditCard, applePay, bikeParking",94108,185 Post street
2474,Paris Hotel Boutique, Antiques,4153057846,creditCard,94127,
2475,Arkitektura SF," Furniture Stores,Interior Design,Lighting Fixtures & Equipment",4155657200,"creditCard, bikeParking",,
2476,Bulthaup San Francisco, Kitchen & Bath,4159080182,creditCard,94107,290 Townsend street
2477,La Maison Du Chocolat, Chocolatiers & Shops,,"takeout, creditCard",94102,150 Stockton street
2478,Chestnut Street Cleaners, Dry Cleaning & Laundry,4157712821,creditCard,94123,1327 Chestnut street
2479,T-Mobile, Mobile Phones,4154473271,creditCard,94123,2016 Chestnut street
2480,Club Mari-S, Bars,4156735636,"creditCard, goodForGroups, hasTV",94115,1581 Webster street
2481,Kinjo," Japanese,Sushi Bars",4159212222,"reservations, creditCard, goodForGroups, waiterService",94109,2206 Polk street
2482,Tourneau," Jewelry,Watches,Watch Repair",4159741846,creditCard,,
2483,Chloe Fine Arts, Art Galleries,4157491000,creditCard,94109,645 Beach street
2484,Infinitel Communications," Mobile Phones,Mobile Phone Accessories,Mobile Phone Repair",4155049688,creditCard,,
2485,CK Contemporary, Art Galleries,4153970114,"creditCard, bikeParking",,
2486,Curve," Women's Clothing,Accessories",4158854200,creditCard,94115,2360 Fillmore street
2487,Giorgio Armani," Women's Clothing,Accessories,Children's Clothing",4154342500,,94102,166 Grant avenue
2488,Sunglass Hut," Eyewear & Opticians,Accessories",4153991606,creditCard,94108,250 Stockton street
2489,ScriptSite Pharmacy &amp; Compounding Lab, Drugstores,4158008060,creditCard,94102,490 Post street
2490,TSE," Women's Clothing,Men's Clothing",4153911112,creditCard,,
2491,Gadgetronics, Electronics,8583449297,creditCard,94133,Pier 39
2492,Berggruen Gallery, Art Galleries,4157814629,"creditCard, goodForKids",94105,10 Hawthorne street
2493,John Windle Antiquarian Bookseller," Antiques,Bookstores",4159865826,creditCard,94108,49 Geary street
2494,Tune Get Jewelry, Jewelry,4153973889,creditCard,94108,1060 Stockton Street
2495,Robert Berry Design, Women's Clothing,4155634211,creditCard,94123,2764 Octavia street
2496,Charisma Crafts," Antiques,Home Decor,Rugs",4153991799,creditCard,94108,950 Mason street
2497,Asian Arts Center, Art Galleries,4152968508,"creditCard, goodForKids",94108,45 Kearny street
2498,The Butler &amp; The Chef," Antiques,Home Decor",4156269600,"creditCard, bikeParking",94103,1118 Harrison street
2499,Cottage Market, Grocery,4159898121,"creditCard, bikeParking",94108,798 Bush Street
2500,Antiquities of California," Hobby Shops,Art Galleries",4154218400,"creditCard, bikeParking, goodForKids",94133,Pier 39
2501,Golden Skin Care, Cosmetics & Beauty Supply,8775541777,creditCard,94132,3251 20th avenue
2502,Ho Kee Market, Grocery,4158371489,creditCard,94133,1251 Stockton Street
2503,RED Valentino, Women's Clothing,4155434900,creditCard,,
2504,The Finest Watches," Watches,Watch Repair",4158643615,creditCard,94108,360 Post street
2505,The Other Artist, Framing,4155635641,,94123,3200 Buchanan street
2506,Kneedler-Fauchere," Interior Design,Furniture Stores",4154876180,creditCard,94103,101 Henry Adams street
2507,Fell Depot Cleaners," Dry Cleaning & Laundry,Sewing & Alterations",4157017788,"creditCard, bikeParking",94117,1263 Fell street
2508,Luckyrice Feast, Asian Fusion,,goodForGroups,94111,1 Ferry building
2509,Tangent Contemporary Art, Art Galleries,4159569999,creditCard,94102,373 Geary street
2510,Miele San Francisco Experience Center, Appliances,8008437231,creditCard,94103,680 8th street
2511,SS21, Office Equipment,,,94102,132 Eddy street
2512,Fendi, Leather Goods,4159860349,creditCard,94108,384 Post street
2513,Lombard Heights Market, Grocery,4157812480,creditCard,94133,1877 Stockton street
2514,"Body, Soul and Spirit Salon", Hair Salons,4153337261,creditCard,94134,222 Leland avenue
2515,Post Street Creamery, Ice Cream & Frozen Yogurt,,"takeout, creditCard, bikeParking",94103,428 11th street
2516,La Perla," Women's Clothing,Lingerie,Swimwear",4154450108,creditCard,94108,170 Geary street
2517,Escada, Women's Clothing,4153913500,creditCard,94108,135 Maiden Ln
2518,Valentino," Women's Clothing,Men's Clothing",4157729835,creditCard,94108,105 Grant avenue
2519,Orogold cosmetics," Skin Care,Cosmetics & Beauty Supply",4159511929,creditCard,94108,450 Powell street
2520,Diva Hair by David Carver - Ford," Wigs,Hair Salons",4153783728,"creditCard, bikeParking, goodForKids",94110,3150 18th street
2521,E6 Gallery, Art Galleries,4155589975,"creditCard, goodForKids",94102,1632 Market street
2522,Astro Gaming, Electronics,4154264024,creditCard,94107,655 4th street
2523,OROGOLD, Cosmetics & Beauty Supply,4153626510,"creditCard, bikeParking",94102,758 Market street
2524,Raffi’s, Jewelry,4156216688,"creditCard, bikeParking",94103,888 Brannan street
2525,S &amp; S Brothers, Jewelry,4156266488,"creditCard, bikeParking",94103,101 Utah street
2526,Cassina | PF | Cappellini, Furniture Stores,4155657200,"creditCard, bikeParking",94103,540 9th street
2527,Vilebrequin, Men's Clothing,4152742502,"creditCard, bikeParking",94108,75 Geary boulevard
2528,Golden Gate Office Solutions, Office Equipment,4156212222,creditCard,94103,927 Howard street
2529,McGuire Furniture Company," Interior Design,Furniture Stores",4159860812,creditCard,,
2530,Trinkers International," Leather Goods,Accessories,Women's Clothing",4152557727,creditCard,94103,888 Brannan street
2531,Bash Contemporary, Art Galleries,4159268573,creditCard,94102,210 Golden Gate avenue
2532,Flexform San Francisco," Interior Design,Furniture Stores",4158006576,"creditCard, bikeParking",,
2533,Twiga, Art Galleries,4152928020,creditCard,94118,3333 Sacramento street
2534,Lakeside French Cleaners," Dry Cleaning & Laundry,Sewing & Alterations",4157533790,creditCard,94132,2660 Ocean avenue
2535,Paul Thiebaud Gallery, Art Galleries,4154343055,,94133,645 Chestnut avenue
2536,Bird School of Music," Performing Arts,Yoga,Musical Instruments & Teachers",4154413551,"creditCard, bikeParking, goodForKids",94109,1924 Polk street
2537,Eden Fine Art, Art Galleries,4159081007,"creditCard, bikeParking, goodForKids",94133,223 Jefferson street
2538,Mix," Women's Clothing,Accessories",4153939535,creditCard,94108,3235 Sacramento street
2539,SkinSpirit," Medical Spas,Laser Hair Removal,Skin Care",4157672640,"creditCard, bikeParking",94118,3325 Sacramento street
2540,Kuraya," Antiques,Furniture Stores",4158853313,creditCard,94115,2425 California street
2541,Geary Cleaners, Dry Cleaning & Laundry,4157519218,"creditCard, bikeParking",94121,5911 Geary Boulevard
2542,Kravet Fabrics, Fabric Stores,4156263037,"creditCard, bikeParking",94103,101 Henry Adams Street
2543,Bess Nathan, Jewelry,4156264630,creditCard,94103,1251 Howard Street
2544,Imperial Square Liquors," Beer, Wine & Spirits",4157764588,creditCard,94102,251 Ellis street
2545,Barcelino, Men's Clothing,4157815777,creditCard,94102,498 Post street
2546,Battersea," Antiques,Home Decor",4155538500,,94103,297 Kansas street
2547,Jessica Silverman Gallery, Art Galleries,4152559508,,94102,488 Ellis street
2548,Sherwin-Williams Paint Store, Paint Stores,4157519420,creditCard,94118,4733 Geary boulevard
2549,Fisherman’s Wharf Piercing, Piercing,4153741443,creditCard,94133,2715 Taylor street
2550,Wisteria Decorative Prints," Antiques,Framing",4153463330,creditCard,94115,3248 Sacramento street
2551,Post Divisadero Medical Pharmacy, Drugstores,4153462663,creditCard,94115,2299 Post street
2552,Waterworks, Kitchen & Bath,4154317160,"creditCard, bikeParking",94103,235 Kansas street
2553,The Custom Shop," Men's Clothing,Bespoke Clothing,Women's Clothing",4155369306,creditCard,94105,372 Sutter street
2554,Joseph Domingo," Men's Clothing,Women's Clothing,Bridal",4155632007,,94102,808 Post street
2555,Chanel Makeup Counter, Cosmetics & Beauty Supply,4153973333,creditCard,94102,170 O&#39;Farrell street
2556,Kirk McGuire Bronze Sculpture," Art Galleries,Home Decor,Commissioned Artists",4154977169,"creditCard, bikeParking, goodForKids",94124,1 Rankin street
2557,American Canvas and Awning, Furniture Stores,4158267515,,94110,1600 Cortland avenue
2558,DJ Mehler," Kitchen & Bath,Home Decor",4158640850,creditCard,94103,165 Rhode Island street
2559,Gallery Three, Art Galleries,4159318035,,94109,66th Sixth street
2560,Studio D," Interior Design,Home Staging,Furniture Stores",4156951430,"creditCard, bikeParking",,
2561,Point Artists Studios, Art Galleries,4156471561,bikeParking,94124,1598 Custer avenue
2562,Brick Row Book Shop, Bookstores,4153980414,creditCard,94108,49 Geary street
2563,Alexandra’s, Bridal,4153977000,creditCard,94102,335 Powell Street.
2564,Lily Samii Studio, Women's Clothing,4154459505,creditCard,94108,210 Post street
2565,Cool Shades Optique, Eyewear & Opticians,4158633590,creditCard,94103,888 Brannan street
2566,Graff, Jewelry,4159267000,creditCard,94108,237 Post street
2567,J &amp; J Grocery &amp; Liquor," Beer, Wine & Spirits",4152855825,creditCard,94114,3751 24th Street
2568,Fresh Start #1, Grocery,4156323772,"creditCard, bikeParking",94110,2631 23rd street
2569,The Rafael’s," Women's Clothing,Accessories",4159746772,"creditCard, bikeParking",94105,643 Market street
2570,Vine Vera Skin Care, Skin Care,4158008968,creditCard,94123,2181 Union street
2571,Aurobora Press, Art Galleries,4155467880,creditCard,94107,370 Brannan street
2572,Antiques As Art Gallery, Antiques,4154099769,creditCard,94108,1248 Mason street
2573,Union Street Jewelers," Jewelry,Watches,Jewelry Repair",4154313050,creditCard,94123,1850 Union street
2574,Linda’s Liquor," Beer, Wine & Spirits,Convenience Stores",4156651446,creditCard,94116,1026 Taraval street
2575,Daniel Stein Antiques, Antiques,4159565620,creditCard,94111,458 Jackson street
2576,Empire Nuj, Dance Clubs,,"creditCard, bikeParking, goodForGroups, outdoorSeating, hasTV",94105,425 1st street
2577,ZenTreks Ltd, Outdoor Gear,4159677778,creditCard,94107,177 Townsend street
2578,Barcelino Per Donna," Women's Clothing,Accessories",4159125700,creditCard,,
2579,"Jim Avila, Consulting in Style and Image", Makeup Artists,4158612857,,94199,
2580,Casa Luna SF, Hotels,4157388121,creditCard,94114,4058 17th street
2581,ALNO San Francisco," Kitchen & Bath,Interior Design,Cabinetry",4155410754,creditCard,94107,243 Brannan street
2582,PIA The Store," Women's Clothing,Jewelry,Accessories",6282225713,creditCard,94111,414 Jackson street
2583,Sui Generis Consignment Womens," Women's Clothing,Used, Vintage & Consignment",4158007584,"creditCard, bikeParking",94123,2147 Union street
2584,Sarah Stocking Fine Vintage Posters," Art Galleries,Framing,Antiques",4159840700,"creditCard, goodForKids",94111,368 Jackson street
2585,Villa Aroma Spa," Massage,Day Spas",4153468884,creditCard,94109,801 Geary street
2586,Mason Liquor &amp; Deli," Convenience Stores,Beer, Wine & Spirits",4159568976,"creditCard, bikeParking",94102,530 Mason street
2587,Deep Sea Cosmetics 1 - Kiosk, Cosmetics & Beauty Supply,4158127277,"creditCard, bikeParking",,
2588,Ruti," Accessories,Women's Clothing,Jewelry",4154414412,creditCard,94115,2119 Fillmore street
2589,Wharf Outdoors," Sports Wear,Flowers & Gifts",4157755060,creditCard,94133,2801 Leavenworth street
2590,Gallery Paule Anglim, Art Galleries,4154332710,goodForKids,94108,14 Geary street
2591,Button Down," Women's Clothing,Men's Clothing,Sports Wear",4155631311,creditCard,94118,3415 Sacramento street
2592,Mo’s Seafood Mac Salad, Food,,,94105,SOMA 
2593,Sunglass Hut," Eyewear & Opticians,Accessories",4156654167,creditCard,94132,3251 20th Avenue
2594,Gallery 55," Jewelry,Home Decor",4158341872,creditCard,94133,51 Jefferson street
2595,Caviar, Food Delivery Services,,creditCard,94103,1455 Market street
2596,Grace Jewelry, Jewelry,4153981868,creditCard,94102,121 Ofarrell Street
2597,Alcatraz Mini Market, Grocery,4159319103,"creditCard, bikeParking",94109,757 Beach street
2598,Clean-X-Press, Dry Cleaning & Laundry,4156817830,,94122,401 Judah street
2599,Lakeshore Cleaners, Dry Cleaning & Laundry,4157535458,creditCard,94132,1557 Sloat boulevard
2600,Venusian Gardens West, Art Galleries,4156921952,,94103,1286 Folsom street
2601,Kiton, Bespoke Clothing,4159897000,creditCard,,
2602,Snow Skin Spa," Waxing,Skin Care,Cosmetics & Beauty Supply",4157026468,"creditCard, bikeParking",94121,3443 Balboa street
2603,Coiniop Washidry, Dry Cleaning & Laundry,,,94122,1101 Irving street
2604,Firenze Fine Arts Inc," Art Galleries,Framing",,creditCard,94133,235 Jefferson street
2605,Bosley - Hair Restoration," Cosmetic Surgeons,Medical Spas,Hair Loss Centers",8884396570,creditCard,94133,50 Francisco street
2606,Kindersport," Children's Clothing,Sports Wear",4155637778,creditCard,94118,3566 Sacramento street
2607,Surprise Party," Arts & Crafts,Antiques",4157718550,"creditCard, bikeParking",94115,1900A Fillmore street
2608,Mandarin Lounge, Lounges,4152769888,"goodForGroups, outdoorSeating, hasTV",94104,222 Sansome street
2609,Ealge Jewelry, Pawn Shops,4152855100,creditCard,94110,2255 Mission street
2610,Rent-A-Center," Furniture Stores,Appliances",4152822522,"creditCard, bikeParking",94110,2853 Mission street
2611,Mark Kai Company," Watches,Jewelry",4157517232,,94118,802 Clement street
2612,Gregory Lind Gallery, Art Galleries,4152969661,creditCard,94108,49 Geary Street
2613,Botanica Ibeyi, Home Decor,4155878001,creditCard,94112,205 Ocean avenue
2614,China Gem Company," Art Supplies,Jewelry",4153975070,,94108,500 Grant avenue
2615,Hair Club, Hair Loss Centers,9192050991,bikeParking,94105,221 Main street
2616,SOHO, Accessories,4155431021,creditCard,94105,865 Market street
2617,SuiteAmerica, Hotels,4153411738,creditCard,94105,680 Mission street
2618,Pacific Pulmonary Service, Medical Supplies,4156477544,,94124,2121 Evans avenue
2619,Vitra," Office Equipment,Furniture Stores",4152960711,creditCard,94133,557 Pacific avenue
2620,Daily Produce, Grocery,4152969598,,94133,1215 Stockton Street
2621,Unitfone Wireless, Mobile Phones,4157150118,creditCard,94134,2700 San Bruno avenue
2622,Ivy Hotel, Hotels,4158636388,creditCard,94102,539 Octavia Street
2623,La Piazza Galleria, Art Galleries,4156765852,creditCard,94108,565 Grant avenue
2624,Del Monte Meat Company, Meat Shops,4155938080,,94124,200 Napoleon street
2625,Viva Wireless, Mobile Phones,4156819855,creditCard,94132,3251 20th avenue
2626,San Francisco Spa, Day Spas,4159013877,creditCard,94102,501 Geary street
2627,Taylor Hotel Union Square, Hotels,4157750780,creditCard,94102,615 Taylor street
2628,San Francisco Laser Clinic, Hair Removal,4153918929,creditCard,94108,166 Geary street
2629,Natalie’s Antiques, Antiques,4159821749,creditCard,94102,349 Geary Street
2630,Lovell’s Antique Gallery, Art Galleries,4154450941,creditCard,94108,625 Grant avenue
2631,Babushka, Arts & Crafts,4156736740,,94133,333 Jefferson street
2632,James’s Place," Beer, Wine & Spirits",,"applePay, bikeParking",94105,686 Mission street
2633,Safe Sand Company, Nurseries & Gardening,4159711776,creditCard,94131,2912 Diamond street
2634,Bargain Depot, Home Decor,4153511778,,94118,2696 Geary boulevard
2635,Chinatown Electronics, Electronics,4158370396,creditCard,94108,921 Grant avenue
2636,Hotelsavings.com, Hotels,,creditCard,94114,
2637,Merchant of China," Women's Clothing,Accessories",4158341615,creditCard,94108,930 Grant Avenue
2638,Digital Powell, Electronics,4159862918,creditCard,94102,245 Powell street
2639,"Tiempo Interiors, Inc."," Interior Design,Furniture Stores,Kitchen & Bath",4156263888,"creditCard, bikeParking",,
2640,Mission Linen &amp; Uniform Service, Dry Cleaning & Laundry,4156215100,,94110,550 Florida Street
2641,Flying Elephants Outlet," Home Decor,Jewelry",4155046133,,94132,3251 20th avenue  Ste 262
2642,Best Camera, Electronics,4158340935,creditCard,94102,217 Ofarrell street
2643,World Communication Company, Mobile Phones,4157597218,creditCard,94122,2024 Irving Street
2644,Aebra Adams, Hair Extensions,4159239731,"creditCard, bikeParking",94117,
2645,Japonesque, Cosmetics & Beauty Supply,9252496600,,94101,
2646,Salon Louis, Hair Salons,4158643012,,94103,4 Brady street
2647,The Great Bridal Expo, Bridal,,,94111,5 Embarcadero Ctr
2648,Star Star Communication, Mobile Phones,4158790881,creditCard,94122,2024 Irving Street
2649,City Electric Supply, Electronics,4158213011,creditCard,94102,3003 3rd street
2650,Palecek Imports," Home Decor,Furniture Stores",4156260866,creditCard,94103,101 Henry Adams street
2651,Herman Miller, Office Equipment,4154332900,,94108,One Kearny
2652,C. Mariani Antiques, Antiques,4155417868,creditCard,94103,1301 Harrison street
2653,Treasure Ireland Irish Gift, Gift Shops,4152749968,creditCard,94133,39 Pier
2654,Cala Foods, Grocery,4157523940,creditCard,94102,Stanyan &amp; Haight
2655,Tansu, Antiques,4152852011,creditCard,94110,2345 Harrison Street
2656,WPA San Francisco, Kitchen & Bath,4155430771,creditCard,94103,2 Henry Adams street
2657,Anchorage Liquor &amp; Deli," Beer, Wine & Spirits",4152929001,creditCard,94133,500 Beach street S
2658,Zain Premium Wines &amp; Spirits," Shopping,Wineries",4157888878,creditCard,94104,238 Sansome street
2659,Megaflex Gym &amp; Fitness Center," Gyms,Tanning",4155644343,creditCard,94122,1247 9th Avenue
2660,Unique Designs Jewelry, Jewelry,4158633384,,94103,888 Brannan street
2661,Elu," Leather Goods,Accessories,Women's Clothing",4152927559,"creditCard, bikeParking",94115,3091 Sacramento street
2662,Earnest Sewn," Women's Clothing,Men's Clothing",4156737300,creditCard,94115,2241 Fillmore street
2663,Bayshore Smoke Shop, Tobacco Shops,4156481560,creditCard,94124,500 Bay Shore boulevard
2664,Fuego, Appliances,8888838346,,94111,1500 Sansome street
2665,Sloan Miyasato, Furniture Stores,4154311465,creditCard,94103,2 Henry Adams Street
2666,Stephanie Odegard Collection," Furniture Stores,Carpeting",4152527917,creditCard,94103,2 Henry Adams street  Ste 330
2667,Endless Knot Rug Company, Home Decor,4159349200,creditCard,94103,2 Henry Adams street
2668,Compton Place Hotel, Hotels,4157815555,,94102,
2669,Mermaid Trading, Jewelry,4158643002,,94103,888 Brannan Street
2670,Joanne Desmond, Hair Salons,4158235300,creditCard,,Steiner Street
2671,Red Lantern Antiques, Antiques,4157768876,,94123,2157 Union Street
2672,Forever Flawless," Cosmetics & Beauty Supply,Skin Care",,"creditCard, bikeParking",,
2673,Wicker Wicker Wicker, Furniture Stores,,creditCard,94107,485 Carolina street
2674,Laville Antiques, Antiques,4152557710,creditCard,94103,200 Kansas street
2675,US Video Rental, Videos & Video Game Rental,4157755115,creditCard,94109,720 Geary Street
2676,Easyfinders," Mobile Phones,Mobile Phone Repair",4154683883,creditCard,,
2677,Camera Express, Electronics,4157880443,creditCard,94108,625 Grant Avenue
2678,Sheila Sohn Hair Design," Hair Stylists,Blow Dry/Out Services",4157933455,"creditCard, goodForKids",94123,2118 Union street
2679,Eradiance, Jewelry,,"creditCard, bikeParking",94102,121 O&#39;Farrell street
2680,Antiquaire, Antiques,4152927500,,94118,3489 Sacramento Street
2681,MaxSold Estate Sales," Estate Liquidation,Auction Houses",6507133478,bikeParking,,
2682,AT&amp;T Authorized Retailer," Mobile Phones,Electronics",4155048688,creditCard,94122,2025 Irving street
2683,Online Camera Gallery," Photography Stores & Services,Electronics",4155636131,creditCard,94133,293 Jefferson street
2684,Trip Tel, Mobile Phones,4154743330,,94109,1525 Van Ness Avenue
2685,Pal Electronics Inc, Electronics,4158349146,creditCard,94108,410 Grant avenue
2686,Glass &amp; Bottle Liquors, Convenience Stores,7635602263,creditCard,94116,3150 Vicente street
2687,Farinelli," Art Galleries,Home Decor",4154334823,"creditCard, bikeParking",,
2688,Kaye’s Footwear, Shoe Stores,4159821683,creditCard,94133,1043 Grant Avenue
2689,Airbrush Genie, Tanning,4154886237,,94109,
2690,Bond Latin Gallery, Art Galleries,4153621480,creditCard,94108,251 Post street
2691,Style Studio, Personal Shopping,4155363135,,94107,
2692,Frisco Electronics, Photography Stores & Services,4153512121,creditCard,94133,2800 Leavenworth street
2693,Product54 Corporation," Personal Shopping,Adult,Massage",4154969669,,94103,795 Folsom street
2694,Parkmerced Cleaners, Dry Cleaning & Laundry,4155876882,creditCard,94132,47 Cambon Drive
2695,Peggy Tom &amp; Associates-Non-Surgical Hair Addition, Skin Care,4153912345,,94102,323 Geary Street
2696,Mobile Systems, Mobile Phones,4155049800,creditCard,94132,3251 20th avenue
2697,Gebrasa Comercio e Representacoes Ltda," Computers,Electronics",4330552832,creditCard,94102,490 Post street
2698,Bonamiko’s, Art Galleries,4153917929,creditCard,94108,444 Grant avenue
2699,Thailand Spa &amp; Massage, Massage,4153999902,creditCard,94133,931 Kearny Street
2700,"Balmoral Hotel North, No. 1", Hotels,4159564103,,94108,706 Kearny Street
2701,Von Demme-Dialogica, Furniture Stores,4154411696,creditCard,94123,1690 Union Street
2702,May Star Beauty Center, Skin Care,4159863882,creditCard,94133,728 Pacific Avenue
2703,Third &amp; Townsend Liquor Store," Beer, Wine & Spirits",,,94107,699 3rd street
2704,Get Art Up, Art Galleries,4156453805,,94110,425 2nd street
2705,Le Souk," Art Galleries,Arts & Crafts,Home Decor",4158642251,,94124,1465 Custer avenue
2706,Van Maren Concepts," Interior Design,Furniture Stores",4156999531,,94129,406 B Washington boulevard
2707,Gadgethut," Mobile Phones,Mobile Phone Repair",5104231739,,94132,3251 20th avenue
2708,Web Camera, Electronics,4157881611,,94102,61 Jefferson street
2709,World Camera, Photography Stores & Services,,,94133,101 Jefferson Street
