id,title,cuisine,phone,feature,zipcode,street_addr
910,Shizen Vegan Sushi Bar &amp; Izakaya," Sushi Bars,Vegan,Izakaya",4156785767,"creditCard, bikeParking, goodForGroups, waiterService",94103,370 14th street
911,Cuisine of Nepal, Himalayan/Nepalese,4156472222,"reservations, delivery, takeout, creditCard, bikeParking, goodForKids, goodForGroups, waiterService, caters",94110,3486 Mission street
912,Raxakoul Wine &amp; Cheese," Cheese Shops,Wine Bars,Sandwiches",4158749133,"takeout, creditCard, goodForKids, goodForGroups, outdoorSeating, hasTV",94102,141 Gough street
913,Chicks and Love Pizza Patio," Pizza,Breakfast & Brunch,Coffee & Tea",4159126648,"reservations, delivery, takeout, creditCard, applePay, bikeParking, goodForKids, goodForGroups, outdoorSeating, caters",94103,1701 Folsom street
914,Tadu Ethiopian Kitchen, Ethiopian,4154096649,"takeout, creditCard, goodForKids, waiterService, caters",94102,484 Ellis street
915,Blue Bottle Coffee, Coffee & Tea,5106533394,"takeout, creditCard, applePay, bikeParking, outdoorSeating",94102,315 Linden street
916,Limoncello," Sandwiches,Delis,Beer, Wine & Spirits",4156386361,"takeout, creditCard, applePay, bikeParking, goodForKids, goodForGroups, caters",94109,1400 Sutter street
917,Hooker’s Sweet Treats," Chocolatiers & Shops,Coffee & Tea",4154414628,"takeout, creditCard, applePay, bikeParking, caters",94109,442 Hyde street
918,Lovejoy’s Tea Room," British,Tea Rooms",4156485895,"reservations, creditCard, goodForKids, goodForGroups, waiterService, caters",94114,1351 Church street
919,Bowl’D Acai," Food Trucks,Juice Bars & Smoothies,Hawaiian",4157707000,"takeout, creditCard, applePay, bikeParking, goodForKids, goodForGroups, outdoorSeating, caters",,
920,Little Star Pizza, Pizza,4154411118,"takeout, creditCard, bikeParking, goodForKids, goodForGroups, hasTV, waiterService, caters",94117,846 Divisadero street
921,Tartine Bakery &amp; Cafe," Bakeries,Patisserie/Cake Shop,Cafes",4154872600,"takeout, creditCard, bikeParking, goodForKids, outdoorSeating",94110,600 Guerrero street
922,Aroma Tea Shop," Coffee & Tea,Tea Rooms",4156683788,"takeout, creditCard, bikeParking",94118,302 6th avenue
923,Neighbor’s Corner," Coffee & Tea,Bakeries",4159930499,"takeout, creditCard, applePay",94114,499 Douglass street
924,Hoffmann’s Grill &amp; Rotisserie, American (New),4153747479,"reservations, takeout, creditCard, goodForKids, goodForGroups, hasTV, waiterService, caters",94110,1000 Guerrero street
925,ABV," Cocktail Bars,American (New)",4154004748,"takeout, creditCard, bikeParking, goodForGroups, outdoorSeating",94103,3174 16th street
926,Hot Zushi," Japanese,Sushi Bars",4158638638,"reservations, takeout, creditCard, bikeParking, goodForKids, goodForGroups, hasTV, waiterService, caters",94117,531 Haight street
927,PizzaHacker - Vinyl Pop Up," Pizza,Street Vendors",,"takeout, creditCard, bikeParking, goodForKids, goodForGroups, waiterService, caters",94117,359 Divisadero street
928,Tuba Authentic Turkish Restaurant," Mediterranean,Turkish,Middle Eastern",4158268822,"reservations, takeout, creditCard, bikeParking, goodForKids, goodForGroups, outdoorSeating, waiterService, caters",94110,1007 Guerrero street
929,Bread Srsly," Bakeries,Gluten-Free",8663383948,"delivery, creditCard, bikeParking, goodForKids, goodForGroups, caters",94103,
930,Paprika," Czech,German,Hungarian",4153751477,"reservations, takeout, bikeParking, goodForGroups, waiterService",94110,3324 24th street
931,Griddle Fresh," Breakfast & Brunch,Salad,American (New)",4156477037,"takeout, creditCard, bikeParking, goodForKids, outdoorSeating, waiterService",94114,4007 24th street
932,No No Burger," Burgers,Food Stands,Vegan",4157109280,"takeout, creditCard, applePay, bikeParking, goodForKids, goodForGroups, outdoorSeating, caters",94103,428 11th street
933,Crepes S’il Vous Plait," Creperies,Sandwiches,Gluten-Free",4159366974,"reservations, takeout, creditCard, applePay, bikeParking, goodForKids, goodForGroups, outdoorSeating, hasTV, waiterService, caters",94114,2175 Market street
934,Zazie," Breakfast & Brunch,French",4155645332,"takeout, creditCard, bikeParking, goodForKids, goodForGroups, outdoorSeating, waiterService",94117,941 Cole street
935,L’emigrante Wine Bar &amp; Bistro," Wine Bars,Sandwiches,Tapas/Small Plates",4158634777,"creditCard, bikeParking, goodForGroups, outdoorSeating, waiterService, caters",94110,2199 Mission street
936,Mateo’s Taqueria," Mexican,Breakfast & Brunch,Vegetarian",4156486000,"delivery, takeout, creditCard, bikeParking, goodForKids, goodForGroups, caters",94110,2471 Mission street
937,Firepie," Pizza,Food Delivery Services",4152132300,"delivery, takeout, creditCard, applePay, bikeParking, goodForKids, caters",94110,3498 Cesar Chavez street
938,FOB Kitchen, Filipino,4156448149,"takeout, creditCard, applePay, goodForGroups, outdoorSeating, hasTV, waiterService",94110,2351 Mission street
939,20 Spot," American (New),Wine Bars",4156243140,"creditCard, applePay, bikeParking, goodForGroups, waiterService",94110,3565 20th street
940,Sushi Zone," Sushi Bars,Japanese",4156211114,"bikeParking, waiterService",94103,1815 Market street
941,Sushi Time," Japanese,Sushi Bars",4155522280,"takeout, creditCard, bikeParking, waiterService",94114,2275 Market street
942,Deli Board," Delis,Sandwiches",4155527687,"takeout, creditCard, applePay, bikeParking, goodForKids, goodForGroups, outdoorSeating, caters",94103,1058 Folsom street
943,Loló," Tapas/Small Plates,Tapas Bars",4156435656,"reservations, creditCard, bikeParking, goodForGroups, waiterService, caters",94110,974 Valencia street
944,Mission Groceteria," Grocery,Delis,Convenience Stores",4156480275,"takeout, creditCard, bikeParking, goodForKids",94110,2950 23rd street
945,City Beer Store," Beer, Wine & Spirits,Beer Bar",4155031033,"creditCard, applePay, bikeParking, goodForGroups",94103,1168 Folsom street
946,T-We Tea," Tea Rooms,Coffee & Tea",4155002097,"takeout, creditCard, bikeParking",94104,50 Post street Level 1
947,Marcella’s Lasagneria, Italian,4159202225,"takeout, creditCard, applePay, bikeParking, goodForKids, outdoorSeating, waiterService, caters",94107,1099 Tennessee street
948,Montesacro Pinseria-Enoteca, Pizza,4157953040,"reservations, takeout, creditCard, goodForGroups, waiterService, caters",94103,510 Stevenson street
949,Mozzeria," Pizza,Italian",4154890963,"reservations, takeout, creditCard, bikeParking, goodForKids, goodForGroups, waiterService, caters",94103,3228 16th street
950,Poc-Chuc," Latin American,Mexican",4155581583,"reservations, takeout, creditCard, bikeParking, goodForKids, goodForGroups, hasTV, waiterService, caters",94103,2886 16th street
951,Myriad Gastropub," Gastropubs,Venues & Event Spaces",4155254335,"reservations, delivery, takeout, creditCard, bikeParking, goodForGroups, outdoorSeating, hasTV, waiterService, caters",94110,2491 Mission street
952,InoVino," Italian,Wine Bars",4156813770,"reservations, takeout, creditCard, bikeParking, goodForGroups, outdoorSeating, waiterService",94117,108B Carl street
953,Little Star Pizza, Pizza,4155517827,"takeout, creditCard, bikeParking, goodForKids, goodForGroups, waiterService, caters",94103,400 Valencia street
954,Mission Cheese," Cheese Shops,Wine Bars,Sandwiches",4155538667,"takeout, creditCard, applePay, bikeParking, outdoorSeating",94110,736 Valencia street
955,Blackbird," Lounges,Wine Bars,Pool Halls",4155030630,"reservations, creditCard, bikeParking, goodForGroups",94114,2124 Market street
956,Parada 22," Latin American,Puerto Rican",4157501111,"delivery, takeout, creditCard, bikeParking, goodForKids, waiterService, caters",94117,1805 Haight street
957,Pizzeria Delfina - San Francisco," Pizza,Italian",4154376800,"takeout, creditCard, bikeParking, goodForKids, outdoorSeating, waiterService",94110,3621 18th street
958,Yemen Kitchen, Middle Eastern,4152143575,"takeout, creditCard, applePay, bikeParking, goodForKids, waiterService, caters",94102,219 Jones street
959,Kitchen Istanbul," Greek,Turkish,Mediterranean",4159159847,"reservations, takeout, creditCard, bikeParking, goodForKids, goodForGroups, outdoorSeating, waiterService, caters",94118,349 Clement street
960,Suppenküche, German,4152529289,"reservations, takeout, creditCard, bikeParking, goodForGroups, waiterService",94102,525 Laguna street
961,The Office," Venues & Event Spaces,Lounges",4157540194,"reservations, creditCard, bikeParking, goodForGroups, hasTV",94114,194 Church street
962,Noeteca," Wine Bars,Cafes",4158245524,"reservations, takeout, creditCard, bikeParking, outdoorSeating, waiterService",94110,1551 Dolores street
963,Higher Grounds Coffee House," Coffee & Tea,Creperies,Breakfast & Brunch",4155872933,"takeout, bikeParking, goodForKids, outdoorSeating",94131,691 Chenery street
964,De Afghanan Kabob House," Afghan,Middle Eastern",4159291124,"takeout, creditCard, bikeParking, goodForKids, goodForGroups, waiterService",94109,1035 Geary street
965,Mission Beach Cafe," American (New),Breakfast & Brunch",4158610198,"reservations, takeout, creditCard, bikeParking, goodForGroups, waiterService",94103,198 Guerrero street
966,Urban Putt," Mini Golf,American (New),Bars",4153411080,"reservations, creditCard, bikeParking, goodForKids, goodForGroups, hasTV, waiterService",94110,1096 S Van Ness avenue
967,Lavash, Persian/Iranian,4156645555,"reservations, takeout, creditCard, bikeParking, goodForKids, goodForGroups, waiterService, caters",94122,511 Irving street
968,Tara Indian Cuisine, Indian,4158616655,"reservations, delivery, takeout, creditCard, bikeParking, goodForKids, goodForGroups, hasTV, waiterService",94114,2217 Market street
969,Lunchpad," Sandwiches,Comfort Food,Breakfast & Brunch",4155226647,"reservations, takeout, creditCard, applePay, bikeParking, goodForGroups, hasTV, caters",94102,581 Hayes street
970,Birba," Wine Bars,American (New),Italian",4155497612,"creditCard, bikeParking",94102,458 Grove street
971,Artis Coffee, Coffee & Tea,4156553576,"takeout, creditCard, bikeParking, outdoorSeating",94102,537 Octavia street
972,Kitchen Story," Breakfast & Brunch,Asian Fusion,American (New)",4155254905,"reservations, delivery, takeout, creditCard, bikeParking, goodForKids, goodForGroups, outdoorSeating, waiterService, caters",94114,3499 16th street
973,Craftsman and Wolves," Bakeries,Cafes,Patisserie/Cake Shop",4159137713,"takeout, creditCard, bikeParking, goodForKids, goodForGroups, outdoorSeating, caters",94110,746 Valencia street
974,Oasis Cafe," Ethiopian,Gluten-Free,Vegetarian",4154744900,"reservations, takeout, creditCard, bikeParking, goodForKids, goodForGroups, outdoorSeating, hasTV, waiterService",94115,901 Divisadero street
975,Nara Restaurant &amp; Sake Bar," Japanese,Sushi Bars",4156386124,"reservations, takeout, creditCard, bikeParking, goodForGroups, hasTV, waiterService",94117,518 Haight street
976,Swirl on Castro," Beer, Wine & Spirits,Wine Bars",4158642262,"creditCard, bikeParking, goodForGroups",94114,572 Castro street
977,Hôtel Biron, Wine Bars,4157030403,"creditCard, bikeParking",94102,45 Rose street
978,Canela Bistro &amp; Wine Bar," Spanish,Tapas Bars,Wine Bars",4155523000,"reservations, takeout, creditCard, applePay, bikeParking, goodForGroups, outdoorSeating, waiterService",94114,2272 Market street
979,Mission Picnic," Sandwiches,Salad",4157353080,"delivery, takeout, creditCard, applePay, bikeParking, goodForKids, caters",94110,3275 22nd street
980,Keeva Indian Kitchen, Indian,4157424010,"delivery, takeout, creditCard, goodForKids, goodForGroups, waiterService, caters",94118,908 Clement street
981,Resolute," Wine Bars,Lounges,Beer, Wine & Spirits",4158250741,"creditCard, goodForGroups",94102,678 Geary street
982,CoffeeShop, Coffee & Tea,4153683802,"takeout, creditCard, applePay, bikeParking, outdoorSeating, caters",94110,3139 Mission street
983,robberbaron, Wine Bars,4155166945,"creditCard, bikeParking, goodForGroups, hasTV",94109,2032 Polk street
984,Chantal Guillon," Bakeries,Cafes,Macarons",4155121020,"delivery, takeout, creditCard, applePay, goodForKids, goodForGroups, caters",94103,1309 Howard street
985,Fat Angel," Wine Bars,Gastropubs",4155253013,"takeout, creditCard, bikeParking, outdoorSeating, waiterService",94115,1740 O&#39;Farrell street
986,Cafe St. Jorge," Coffee & Tea,Breakfast & Brunch",4158142028,"takeout, creditCard, applePay, bikeParking, goodForKids, caters",94110,3438 Mission street
987,Liquid Gold, Beer Bar,4156605142,"reservations, creditCard, goodForGroups, hasTV",94109,1040 Hyde street
988,Southern Comfort Kitchen," Food Trucks,Cajun/Creole",5105496155,"takeout, creditCard, applePay, bikeParking, goodForKids, goodForGroups, outdoorSeating, caters",94102,
989,Walzwerk, German,4155517181,"reservations, takeout, creditCard, bikeParking, goodForGroups, waiterService",94103,381 S Van Ness avenue
990,Old Jerusalem Restaurant," Middle Eastern,Mediterranean,Arabian",4156425958,"reservations, takeout, creditCard, bikeParking, goodForKids, goodForGroups, waiterService, caters",94110,2976 Mission street
991,Rooster &amp; Rice," Chicken Shop,Thai",4157763647,"takeout, creditCard, bikeParking, goodForKids, outdoorSeating",94123,2211 Filbert street
992,Eiji," Sushi Bars,Japanese",4155588149,"reservations, takeout, creditCard, bikeParking, waiterService",94114,317 Sanchez street
993,El Buen Comer," Mexican,Breakfast & Brunch",4158171542,"reservations, takeout, creditCard, bikeParking, goodForKids, goodForGroups, hasTV, waiterService, caters",94110,3435 Mission street
994,Thai Idea Vegetarian," Vegan,Thai,Vegetarian",4154408344,"reservations, takeout, creditCard, bikeParking, goodForKids, goodForGroups, waiterService, caters",94109,710 Polk street
995,Mr Pollo, American (New),8609129168,"reservations, creditCard, bikeParking, waiterService",94110,2823 Mission street
996,Woodhouse Fish Company," Seafood,Fish & Chips",4154372722,"takeout, creditCard, bikeParking, goodForKids, waiterService",94114,2073 Market street
997,Benjamin Cooper, Bars,4156545061,"creditCard, bikeParking, goodForGroups",94102,398 Geary street
998,August 1 Five," Indian,Cocktail Bars,Salad",4157715900,"reservations, takeout, creditCard, goodForKids, goodForGroups, waiterService, caters",94102,524 Van Ness avenue
999,Stuffed," American (Traditional),Polish",4156421069,"reservations, takeout, creditCard, bikeParking, goodForKids, goodForGroups, outdoorSeating, hasTV, waiterService",94110,2788 Mission street
1000,Rusty’s Southern," Southern,Breakfast & Brunch,Diners",4156386974,"reservations, takeout, creditCard, bikeParking, goodForKids, goodForGroups, waiterService",94109,750 Ellis street
1001,Elephant Sushi Golden Gate," Sushi Bars,Japanese",4153599001,"reservations, takeout, creditCard, bikeParking, outdoorSeating, hasTV, waiterService",94102,380 Golden Gate avenue
1002,Cafe du Soleil," French,Salad,Sandwiches",4156996154,"delivery, takeout, creditCard, outdoorSeating, caters",94107,345 3rd street
1003,Souvla," Greek,Mediterranean",4154005458,"takeout, creditCard, applePay, bikeParking, goodForKids, outdoorSeating",94102,517 Hayes street
1004,Wilson &amp; Wilson," Lounges,Speakeasies",,"reservations, creditCard",94102,505 Jones street
1005,Tender, Wine Bars,4155897879,"creditCard, goodForGroups",94109,854 Geary street
1006,Cafe Europa," German,Comfort Food,Polish",4153861000,"reservations, takeout, creditCard, bikeParking, goodForKids, goodForGroups, waiterService",94118,4318 California street
1007,Azucar Lounge," Lounges,Mexican,Venues & Event Spaces",4152552982,"reservations, takeout, creditCard, bikeParking, goodForGroups, hasTV, waiterService, caters",94103,299 9th street
1008,Souvla," Mediterranean,Greek",4154005458,"delivery, takeout, creditCard, applePay, bikeParking, goodForKids, goodForGroups, outdoorSeating",94117,531 Divisadero street
1009,Chez Maman," French,Burgers,Creperies",4156559542,"takeout, creditCard, outdoorSeating, waiterService",94107,1401 18th street
1010,Rove Kitchen," Burgers,American (Traditional)",4155677466,"takeout, creditCard, hasTV, waiterService",94109,678 Post street
1011,The Wine Club," Beer, Wine & Spirits,Wine Bars",4155129086,"reservations, creditCard, bikeParking",94107,953 Harrison street
1012,Beretta," Italian,Bars,Pizza",4156951199,"reservations, takeout, creditCard, bikeParking, goodForGroups, outdoorSeating, waiterService",94110,1199 Valencia street
1013,Ginza Sushi &amp; Sake," Sushi Bars,Japanese",4157420552,"reservations, delivery, takeout, creditCard, bikeParking, goodForKids, goodForGroups, hasTV, waiterService",94117,1793 Haight street
1014,Tokyo Futon &amp; Tea," Furniture Stores,Coffee & Tea",4158636368,"creditCard, bikeParking",94110,924 Valencia street
1015,Bella Trattoria, Italian,4152210305,"reservations, creditCard, bikeParking, goodForGroups, hasTV, waiterService",94118,3854 Geary boulevard
1016,Sweet Maple," American (Traditional),Breakfast & Brunch",4156559169,"takeout, creditCard, bikeParking, goodForKids, goodForGroups, outdoorSeating, hasTV, waiterService",94115,2101 Sutter street
1017,The Little Chihuahua, Mexican,4152558225,"takeout, creditCard, applePay, bikeParking, goodForKids, goodForGroups",94117,292 Divisadero street
1018,Jannah, Middle Eastern,4155674400,"reservations, takeout, creditCard, bikeParking, goodForKids, goodForGroups, outdoorSeating, hasTV, waiterService, caters",94117,1775 Fulton street
1019,Martuni’s," Lounges,Karaoke",4152410205,"creditCard, goodForGroups",94103,4 Valencia street
1020,The Castro Republic," Latin American,Mexican",4159340525,"takeout, creditCard, applePay, goodForKids, goodForGroups, outdoorSeating, hasTV, waiterService",94114,2295 Market street
1021,Lupa Trattoria, Italian,4152825872,"reservations, takeout, creditCard, bikeParking, goodForKids, goodForGroups, waiterService",94114,4109 24th street
1022,Montella Pizzeria," Pizza,Beer Bar,Salad",4156421160,"reservations, delivery, takeout, creditCard, goodForKids, goodForGroups, hasTV, waiterService, caters",94110,3161 24th street
1023,Graffeo Coffee Roasting Company, Coffee & Tea,4159862420,"takeout, creditCard, bikeParking",94133,735 Columbus avenue
1024,KitTea Cat Cafe," Cafes,Tea Rooms,Pet Adoption",4156587888,"reservations, takeout, creditCard, bikeParking, goodForKids, goodForGroups",94102,96 Gough street
1025,Woods Cervecería," Bars,Breweries,Venues & Event Spaces",4152128412,"takeout, creditCard, bikeParking, outdoorSeating",94114,3801 18th street
1026,Ben Thai Cafe, Thai,4157712562,"takeout, creditCard, bikeParking, goodForKids, goodForGroups, waiterService, caters",94109,1331 Polk street
1027,Gus’s Community Market," Grocery,Health Markets,Delis",4154319300,"delivery, takeout, creditCard, applePay, bikeParking, goodForKids, goodForGroups, outdoorSeating",94110,2111 Harrison street
1028,El Techo," Tapas Bars,Latin American,Cocktail Bars",4155506970,"takeout, creditCard, bikeParking, goodForGroups, outdoorSeating, waiterService",94110,2518 Mission street
1029,Limón Rotisserie," Latin American,Peruvian,Tapas/Small Plates",4158212134,"reservations, takeout, creditCard, bikeParking, goodForGroups, hasTV, waiterService, caters",94110,1001 S Van Ness avenue
1030,Om Indian Cuisine, Indian,4155253705,"reservations, delivery, takeout, creditCard, applePay, bikeParking, goodForKids, goodForGroups, hasTV, waiterService, caters",94117,1668 Haight street
1031,Sugoi Sushi," Japanese,Sushi Bars",4154018442,"reservations, takeout, creditCard, bikeParking, goodForKids, goodForGroups, waiterService",94110,1152 Valencia street
1032,The Beer Hall, Beer Bar,4158007416,"creditCard, applePay, bikeParking, goodForGroups, hasTV",94102,1 Polk street
1033,Udupi Palace," Indian,Vegetarian",4159708000,"reservations, delivery, takeout, bikeParking, goodForKids, goodForGroups, waiterService, caters",94110,1007 Valencia street
1034,Old Skool Cafe," Soul Food,American (Traditional)",4158228531,"reservations, takeout, creditCard, applePay, bikeParking, goodForKids, goodForGroups, waiterService, caters",94124,1429 Mendell street
1035,Juice Shop," Juice Bars & Smoothies,Food Stands",4157570696,"delivery, takeout, creditCard, bikeParking, goodForKids, goodForGroups, outdoorSeating",94102,432 Octavia street
1036,Enjoy Vegetarian Restaurant," Vegetarian,Chinese",4156820826,"reservations, takeout, creditCard, bikeParking, goodForKids, goodForGroups, waiterService",94122,754 Kirkham street
1037,The Monk’s Kettle," Bars,Gastropubs",4158659523,"takeout, creditCard, bikeParking, outdoorSeating, hasTV, waiterService",94103,3141 16th street
1038,Wine Down SF," Wine Bars,Beer Bar,Venues & Event Spaces",4158297005,"reservations, creditCard, applePay, bikeParking, goodForGroups, outdoorSeating, hasTV",94107,685 Folsom street
1039,The Social Study," Wine Bars,Cafes",4152927417,"creditCard, bikeParking, goodForGroups",94115,1795 Geary boulevard
1040,La Traviata, Italian,4152820500,"reservations, takeout, creditCard, bikeParking, goodForKids, goodForGroups, waiterService",94110,2854 Mission street
1041,Blue Bottle Coffee Co," Coffee & Tea,Breakfast & Brunch",5106533394,"takeout, creditCard, applePay, bikeParking, outdoorSeating",94103,66 Mint street
1042,Two Sisters Bar and Books," Bars,American (New)",4158633655,"creditCard, bikeParking, outdoorSeating, caters",94102,579 Hayes street
1043,Farmhouse Kitchen Thai Cuisine," Thai,Comfort Food,Gluten-Free",4158142920,"reservations, delivery, takeout, creditCard, bikeParking, goodForKids, goodForGroups, waiterService, caters",94110,710 Florida street
1044,The Alembic," Bars,American (New)",4156660822,"creditCard, waiterService",94117,1725 Haight street
1045,Oasis," Gay Bars,Performing Arts",4157953180,"creditCard, bikeParking, goodForGroups, hasTV",94103,298 11th street
1046,Inner Fog, Wine Bars,4156824116,"creditCard, bikeParking, goodForGroups",94122,545 Irving street
1047,Long Bridge Pizza, Pizza,4158298999,"takeout, creditCard, bikeParking, goodForKids, caters",94107,2347 3rd street
1048,The Italian Homemade Company, Italian,4156559325,"takeout, creditCard, applePay, bikeParking, goodForKids, goodForGroups, caters",94123,1919 Union street
1049,San Jalisco, Mexican,4156488383,"takeout, creditCard, bikeParking, goodForKids, goodForGroups, hasTV, waiterService, caters",94110,901 S Van Ness avenue
1050,DAVIDsTEA," Tea Rooms,Coffee & Tea",4152850515,"takeout, creditCard, bikeParking, outdoorSeating",94114,3870 24th street
1051,Burma Superstar, Burmese,4153872147,"takeout, creditCard, bikeParking, goodForKids, goodForGroups, waiterService",94118,309 Clement street
1052,Hopwater Distribution," American (Traditional),Beer Bar",,"creditCard, bikeParking, goodForGroups, hasTV",94108,850 Bush street
1053,Virgil’s Sea Room, Cocktail Bars,4158292233,"reservations, bikeParking, goodForGroups, outdoorSeating, hasTV",94110,3152 Mission street
1054,The Spice Jar," Asian Fusion,Seafood,Vegan",4158293668,"takeout, creditCard, bikeParking, goodForGroups, outdoorSeating, waiterService",94110,2500 Bryant street
1055,Elephant Sushi, Sushi Bars,4153747186,"creditCard, waiterService",94109,705 Geary street
1056,Cafe de Casa," Coffee & Tea,Brazilian,Gluten-Free",4153451055,"takeout, creditCard, applePay, bikeParking, goodForKids, caters",94133,2701 Leavenworth street
1057,Bar 587," Lounges,Cocktail Bars",4158171712,"reservations, creditCard, bikeParking, goodForGroups, hasTV",94102,587 Post street
1058,Italian Homemade Company," Grocery,Italian,Pasta Shops",4157128874,"delivery, takeout, creditCard, applePay, bikeParking, goodForKids, outdoorSeating, caters",94133,716 Columbus avenue
1059,Pearl’s Deluxe Burgers, Burgers,4154096120,"takeout, bikeParking, goodForKids",94109,708 Post street
1060,Black Hammer Brewing," Breweries,Beer Bar",4157582223,"creditCard, bikeParking, goodForGroups, outdoorSeating, hasTV",94107,544 Bryant street
1061,Assab Eritrean Restaurant," Ethiopian,Desserts",4154417083,"reservations, takeout, creditCard, bikeParking, goodForKids, goodForGroups, waiterService",94118,2845 Geary boulevard
1062,Aslam’s Rasoi," Indian,Pakistani",4156950599,"reservations, takeout, creditCard, bikeParking, goodForKids, goodForGroups, hasTV, waiterService, caters",94110,1037 Valencia street
1063,Jasmine Garden, Vietnamese,4158612682,"reservations, takeout, creditCard, bikeParking, goodForKids, goodForGroups, hasTV, waiterService, caters",94114,708 14th street
1064,Hogwash," Gastropubs,Beer Bar",4153615500,"takeout, creditCard, goodForGroups, hasTV",94102,582 Sutter street
1065,Mr Tipple’s Recording Studio," Cocktail Bars,Jazz & Blues",4158518561,"creditCard, bikeParking, goodForGroups",94102,39 Fell street
1066,The Lodge on Haight, American (Traditional),4158729502,"takeout, creditCard, applePay, bikeParking, goodForKids, goodForGroups, hasTV",94117,400 Haight Street
1067,Universal Cafe," Breakfast & Brunch,American (New),Diners",4158214608,"reservations, takeout, creditCard, bikeParking, goodForKids, outdoorSeating, waiterService, caters",94110,2814 19th street
1068,NightLife," Museums,Bars",4153798000,"creditCard, bikeParking, goodForGroups",94118,55 Music Concourse Dr
1069,Mi Lindo Peru, Peruvian,4156424897,"takeout, creditCard, bikeParking, goodForKids, goodForGroups, waiterService",94110,3226 Mission street
1070,Fable, American (New),4155902404,"reservations, creditCard, bikeParking, goodForGroups, outdoorSeating, waiterService",94114,558 Castro street
1071,Third Rail, Cocktail Bars,4152527966,"creditCard, applePay, bikeParking, goodForGroups, hasTV",94107,628 20th street
1072,Waystone," Salad,Sandwiches,Wine Bars",6284443323,"takeout, creditCard, bikeParking, goodForGroups, outdoorSeating",94102,992 Market street
1073,Garaje," Mexican,Burgers,Gastropubs",4156440838,"takeout, goodForGroups, hasTV",94107,475 3rd street
1074,PianoFight," Bars,American (New),Performing Arts",4158163691,"creditCard, bikeParking, goodForGroups",94102,144 Taylor street
1075,Etcetera Wine Bar," Wine Bars,American (New),Tapas/Small Plates",4159265477,"creditCard, bikeParking, goodForGroups, outdoorSeating, waiterService",94110,795 Valencia street
1076,New Eritrea Restaurant &amp; Bar," Ethiopian,Vegetarian",4156811288,"reservations, takeout, creditCard, bikeParking, goodForKids, goodForGroups, hasTV, waiterService, caters",94122,907 Irving street
1077,Nabe," Hot Pot,Japanese",4157312658,"reservations, takeout, creditCard, bikeParking, goodForKids, goodForGroups, waiterService",94122,1325 9th avenue
1078,Swan Oyster Depot, Seafood,4156731101,"takeout, bikeParking, waiterService",94109,1517 Polk street
1079,Molinari Delicatessen, Delis,4154212337,"takeout, creditCard, bikeParking, goodForKids, outdoorSeating, caters",94133,373 Columbus avenue
1080,Plow," Breakfast & Brunch,American (New)",4158217569,"takeout, creditCard, bikeParking, goodForKids, outdoorSeating, waiterService",94107,1299 18th street
1081,Gialina Pizzeria," Pizza,Italian",4152398500,"takeout, creditCard, bikeParking, goodForKids, waiterService",94131,2842 Diamond street
1082,Chloe’s Cafe, Breakfast & Brunch,4156484116,"takeout, creditCard, bikeParking, goodForKids, outdoorSeating, waiterService",94114,1399 Church street
1083,Chez Maman West," French,Burgers",4153559067,"takeout, creditCard, outdoorSeating, waiterService, caters",94102,401 Gough street
1084,La Mediterranee," Mediterranean,Middle Eastern,Breakfast & Brunch",4154317210,"delivery, takeout, creditCard, bikeParking, goodForKids, goodForGroups, outdoorSeating, waiterService, caters",94114,288 Noe street
1085,Topsy’s Fun House," Cocktail Bars,Lounges",4157570290,"reservations, creditCard, bikeParking, goodForGroups, outdoorSeating, hasTV",94108,260 Kearny street
1086,Maven," American (New),Gastropubs,Cocktail Bars",4158297982,"takeout, creditCard, bikeParking, goodForGroups, waiterService",94117,598 Haight street
1087,Kazan," Japanese,Sushi Bars,Soup",4152822001,"reservations, takeout, creditCard, bikeParking, goodForKids, goodForGroups, waiterService, caters",94110,2809 24th street
1088,PizzaHacker, Pizza,4159916911,"delivery, takeout, creditCard, goodForKids, goodForGroups, waiterService, caters",94110,3299 Mission street
1089,Sightglass Coffee, Coffee & Tea,4158611313,"takeout, creditCard, applePay, bikeParking",94103,270 7th street
1090,Indian Paradox," Wine Bars,Indian",4155935386,"takeout, creditCard, waiterService",94117,258 Divisadero street
1091,Nopalito," Mexican,Comfort Food,Gluten-Free",4152339966,"takeout, creditCard, bikeParking, goodForKids, goodForGroups, outdoorSeating, waiterService, caters",94122,1224 9th avenue
1092,Sip Wine Bar, Wine Bars,6284004065,"reservations, creditCard, goodForGroups, hasTV",94112,4704 Mission street
1093,Le Cafe du Soleil," Coffee & Tea,Sandwiches,French",4159348637,"takeout, creditCard, bikeParking, goodForKids, goodForGroups, outdoorSeating",94102,200 Fillmore street
1094,Wish," Lounges,Music Venues",4154969530,"reservations, creditCard, bikeParking, goodForGroups, hasTV",94103,1539 Folsom street
1095,Corridor Cafe," Coffee & Tea,Sandwiches,Breakfast & Brunch",4154004979,"takeout, creditCard, applePay, bikeParking, goodForKids, outdoorSeating, caters",94102,100 Van Ness avenue
1096,San Tung," Chinese,Korean,Asian Fusion",4152420828,"takeout, creditCard, bikeParking, goodForKids, goodForGroups, waiterService",94122,1031 Irving street
1097,Smuggler’s Cove," Venues & Event Spaces,Tiki Bars,Cocktail Bars",4158691900,"creditCard, bikeParking, goodForGroups",94102,650 Gough street
1098,Trick Dog, Cocktail Bars,4154712999,"creditCard, bikeParking, goodForGroups",94110,3010 20th street
1099,24th Street Bar, Cocktail Bars,4152822440,"creditCard, bikeParking, goodForGroups, hasTV",94110,3336 24th street
1100,DOSA on Valencia, Indian,4156423672,"reservations, delivery, takeout, creditCard, bikeParking, goodForGroups, waiterService, caters",94110,995 Valencia street
1101,Domo," Sushi Bars,Japanese",4158618887,"takeout, creditCard, bikeParking, outdoorSeating, waiterService",94102,511 Laguna street
1102,Red Hill Station, Seafood,4157570480,"reservations, takeout, creditCard, bikeParking, goodForKids, goodForGroups, waiterService",94110,803 Cortland avenue
1103,The Residence, Lounges,4157978866,"bikeParking, goodForGroups, hasTV",94114,718 14th street
1104,BEL," Belgian,Bars,Modern European",4152061000,"reservations, takeout, creditCard, bikeParking, goodForGroups, waiterService",94110,3215 Mission street
1105,Taylor Street Coffee Shop," Breakfast & Brunch,Burgers,Sandwiches",4155674031,"takeout, creditCard, bikeParking, goodForKids, waiterService",94102,375 Taylor street
1106,Manora’s Thai Cuisine," Thai,Cocktail Bars",4158616224,"reservations, delivery, takeout, creditCard, bikeParking, goodForKids, goodForGroups, waiterService",94103,1600 Folsom street
1107,Delessio Market &amp; Bakery," Bakeries,Delis,Caterers",4155525559,"takeout, creditCard, bikeParking, goodForKids, goodForGroups, outdoorSeating",94103,1695 Market street
1108,Repose Coffee Bar," Coffee & Tea,Bakeries,Donuts",4158749110,"takeout, creditCard, applePay, bikeParking, outdoorSeating",94117,262 Divisadero street
1109,Okina Sushi," Sushi Bars,Japanese",4153878882,"reservations, takeout, bikeParking, waiterService",94118,776 Arguello boulevard
1110,Leopold’s," Austrian,Bars",4154742000,"creditCard, bikeParking, goodForGroups, waiterService",94109,2400 Polk street
1111,Mela Tandoori Kitchen," Indian,Pakistani,Halal",4154474041,"reservations, delivery, takeout, creditCard, goodForKids, goodForGroups, outdoorSeating, hasTV, waiterService, caters",94102,536 Golden Gate avenue
1112,Dottie’s True Blue Cafe," American (Traditional),Breakfast & Brunch,Cafes",4158852767,"takeout, creditCard, goodForKids, waiterService",94103,28 6th street
1113,Brenda’s Meat &amp; Three," Soul Food,Breakfast & Brunch,Southern",4159268657,"takeout, creditCard, bikeParking, goodForKids, goodForGroups, outdoorSeating, waiterService",94115,919 Divisadero street
1114,Little Baobab, Senegalese,4156433558,"reservations, takeout, bikeParking, goodForGroups, hasTV, waiterService",94110,3380 19th street
1115,Zam Zam, Bars,4158612545,bikeParking,94117,1633 Haight street
1116,Lers Ros, Thai,4159316917,"reservations, delivery, takeout, creditCard, bikeParking, goodForKids, goodForGroups, hasTV, waiterService, caters",94109,730 Larkin street
1117,Elmira Rosticceria," Italian,American (Traditional),Breakfast & Brunch",4155517332,"takeout, creditCard, bikeParking, goodForKids, goodForGroups, caters",94102,154 McAllister street
1118,The Sycamore, Gastropubs,4152527704,"takeout, creditCard, bikeParking, goodForGroups, outdoorSeating",94110,2140 Mission street
1119,Trattoria da Vittorio," Italian,Pizza",4157420300,"takeout, creditCard, bikeParking, goodForKids, goodForGroups, outdoorSeating, hasTV, waiterService, caters",94127,150 W Portal avenue
1120,Eno Wine Bar, Wine Bars,4156785321,"reservations, creditCard, bikeParking, goodForGroups",94102,320 Geary street
1121,La Mediterranee," Middle Eastern,Mediterranean,Armenian",4159212956,"delivery, takeout, creditCard, bikeParking, goodForKids, outdoorSeating, waiterService, caters",94115,2210 Fillmore street
1122,Rock Bar, Bars,4155506664,"creditCard, bikeParking, goodForGroups, hasTV",94110,80 29th street
1123,Regent Thai Restaurant, Thai,4156435893,"reservations, takeout, creditCard, bikeParking, goodForKids, goodForGroups, waiterService",94131,1700 Church street
1124,Pork Store Cafe," Breakfast & Brunch,Coffee & Tea",4158646981,"takeout, creditCard, bikeParking, goodForKids, waiterService",94117,1451 Haight street
1125,Betty Lou’s Seafood &amp; Grill, Seafood,4157570569,"reservations, takeout, creditCard, goodForKids, goodForGroups, hasTV, waiterService",94133,318 Columbus avenue
1126,Cha-Ya," Japanese,Vegetarian,Vegan",4152527825,"takeout, bikeParking, goodForKids, goodForGroups, waiterService",94110,762 Valencia street
1127,Blue Bottle Coffee, Coffee & Tea,5106533394,"takeout, creditCard, applePay, bikeParking, outdoorSeating",94103,1355 Market street
1128,Ritual Coffee Roasters, Coffee & Tea,4158650989,"takeout, creditCard, applePay, bikeParking, outdoorSeating",94102,432b Octavia street
1129,WesBurger ‘N’ More," Burgers,American (Traditional)",4157459371,"takeout, creditCard, bikeParking, goodForKids, goodForGroups, caters",94110,2240 Mission street
1130,Pacific Cocktail Haven, Cocktail Bars,4157445000,"creditCard, goodForGroups",94108,580 Sutter street
1131,BARZOTTO, Italian,4152851200,"takeout, creditCard, applePay, bikeParking, goodForKids, goodForGroups, outdoorSeating",94110,1270 Valencia street
1132,Fig &amp; Thistle, Wine Bars,4155897005,"creditCard, bikeParking",94102,313 Ivy street
1133,Mission Street Oyster Bar," Seafood,Fish & Chips",4156216987,"reservations, takeout, creditCard, bikeParking, goodForKids, goodForGroups, hasTV, waiterService, caters",94110,2282 Mission street
1134,Red Door Cafe," Breakfast & Brunch,Vegetarian,Latin American",4154411564,"takeout, creditCard, waiterService",94108,1608 Bush street
1135,La Fusión, Latin American,4157810894,"reservations, takeout, creditCard, goodForGroups, waiterService",94104,475 Pine street
1136,Bodega," Cafes,Wine Bars,Beer Bar",4156347002,"takeout, creditCard, applePay, bikeParking, goodForKids, goodForGroups, outdoorSeating, waiterService, caters",94133,700 Columbus avenue
1137,High Treason, Wine Bars,4157425256,"creditCard, bikeParking, goodForGroups",94118,443 Clement street
1138,Early To Rise," Breakfast & Brunch,American (Traditional)",,"reservations, creditCard, goodForKids, goodForGroups, waiterService, caters",94133,1096 Union street
1139,VeganBurg," Vegan,Burgers,Fast Food",4155488000,"delivery, takeout, creditCard, bikeParking, goodForKids, goodForGroups, caters",94117,1466 Haight street
1140,Amélie," Wine Bars,Lounges,French",4152926916,"reservations, creditCard, bikeParking, goodForGroups, waiterService",94109,1754 Polk street
1141,Stow Lake Boathouse," Boating,Coffee & Tea,Venues & Event Spaces",4153862531,"creditCard, bikeParking, goodForKids, outdoorSeating",94118,50 Stow Lake Dr
1142,Cafe Reverie," Coffee & Tea,Sandwiches,Breakfast & Brunch",4152420200,"takeout, bikeParking, goodForKids, goodForGroups, outdoorSeating",94117,848 Cole street
1143,Pampanguena Cuisine," Filipino,Seafood,Asian Fusion",4155868899,"reservations, takeout, bikeParking, goodForKids, goodForGroups, hasTV, waiterService, caters",94112,4441 Mission street
1144,Padrecito, Mexican,4157425505,"reservations, takeout, creditCard, bikeParking, goodForKids, goodForGroups, outdoorSeating, waiterService",94117,901 Cole street
1145,Caskhouse," Wine Bars,Gastropubs",4158345005,"creditCard, bikeParking, goodForGroups, hasTV, waiterService",94114,3853 24th street
1146,Gamine," French,Burgers",4157717771,"reservations, takeout, creditCard, bikeParking, goodForGroups, outdoorSeating, waiterService",94123,2223 Union street
1147,Pause Wine Bar," Wine Bars,Pizza",4152419463,"reservations, creditCard, bikeParking, goodForGroups, waiterService",94102,1666 Market street
1148,Arabian Nights Restaurant," Mediterranean,Wine Bars,Arabian",4156481444,"reservations, takeout, creditCard, bikeParking, goodForKids, goodForGroups, outdoorSeating, hasTV, waiterService, caters",94110,2345 Mission street
1149,Yummy Yummy," Vietnamese,Chinese,Noodles",4155664722,"takeout, creditCard, bikeParking, goodForKids, goodForGroups, hasTV, waiterService",94122,1015 Irving street
1150,Warakubune Sushi, Conveyor Belt Sushi,4152528383,"takeout, creditCard, bikeParking, waiterService",94114,307 Church street
1151,Bluxome Street Winery," Beer, Wine & Spirits,Wine Bars,Wineries",4155435353,"reservations, creditCard, bikeParking, goodForGroups, hasTV",94107,53 Bluxome street
1152,Ebisu," Sushi Bars,Japanese",4155661770,"takeout, creditCard, bikeParking, goodForKids, goodForGroups, waiterService, caters",94122,1283 9th avenue
1153,Iza Ramen," Ramen,Noodles,Izakaya",4159268173,"creditCard, bikeParking, goodForKids, goodForGroups, hasTV, waiterService",94117,237 Fillmore street
1154,Elite Audio Coffee Bar," Coffee & Tea,Venues & Event Spaces",4157951149,"takeout, creditCard, applePay, bikeParking",94107,893A Folsom street
1155,Mac Daddy," American (Traditional),Salad,Soup",4158726670,"takeout, creditCard, bikeParking, goodForKids, outdoorSeating, waiterService, caters",94107,1453 18th street
1156,Ron’s Pit Stop," Barbeque,Soul Food",4155152023,"takeout, creditCard, bikeParking, goodForKids, goodForGroups, hasTV, caters",94110,1401 Valencia street
1157,Blue Front Cafe," Middle Eastern,Sandwiches,Coffee & Tea",4152525917,"takeout, creditCard, bikeParking, goodForKids, goodForGroups, caters",94117,1430 Haight street
1158,Burma Love," Burmese,Cocktail Bars,Salad",4158612100,"takeout, creditCard, bikeParking, goodForKids, goodForGroups, waiterService",94103,211 Valencia street
1159,Roam Artisan Burgers," Burgers,Gluten-Free",4158007801,"takeout, creditCard, bikeParking, goodForKids, goodForGroups, outdoorSeating, hasTV",94115,1923 Fillmore street
1160,Churchill, Lounges,4155709198,"creditCard, bikeParking, goodForGroups, hasTV",94114,198 Church street
1161,1428 HAIGHT Patio Cafe &amp; Crepery," American (Traditional),Creperies,Breakfast & Brunch",4158648484,"delivery, takeout, creditCard, bikeParking, goodForKids, goodForGroups, outdoorSeating, hasTV",94117,1428 Haight street
1162,Bond," Cocktail Bars,Lounges",4157354499,"reservations, creditCard, bikeParking, goodForGroups, hasTV",94103,3079 16th street
1163,Tataki," Sushi Bars,Bars",4159311182,"reservations, takeout, creditCard, waiterService, caters",94115,2827 California street
1164,Le P’tit Laurent, French,4153343235,"reservations, takeout, creditCard, bikeParking, waiterService",94131,699 Chenery street
1165,Pomelo," Breakfast & Brunch,Modern European,Cuban",4152852257,"reservations, takeout, creditCard, bikeParking, goodForKids, outdoorSeating, waiterService",94131,1793 Church street
1166,Woodhouse Fish Company," Seafood,Fish & Chips",4154372722,"takeout, creditCard, bikeParking, goodForKids, goodForGroups, waiterService",94115,1914 Fillmore street
1167,Poki Time," Hawaiian,Seafood,Poke",4157026333,"takeout, creditCard, bikeParking, goodForKids, goodForGroups",94122,549 Irving street
1168,I’a Poke," Asian Fusion,Poke",4158298030,"takeout, creditCard, bikeParking, goodForKids",94114,314 Church street
1169,Linea Caffe, Coffee & Tea,4155903011,"takeout, creditCard, bikeParking, outdoorSeating",94110,3417 18th street
1170,Amasia Hide’s Sushi Bar," Sushi Bars,Japanese",4158617000,"takeout, creditCard, bikeParking, waiterService, caters",94114,149 Noe street
1171,Jane," Coffee & Tea,Bakeries,Breakfast & Brunch",4159315263,"takeout, creditCard, bikeParking",94115,2123 Fillmore street
1172,Valley Tavern," Pubs,Sports Bars",4152850674,"reservations, creditCard, bikeParking, goodForGroups, outdoorSeating, hasTV",94114,4054 24th street
1173,Chow - Church," American (Traditional),Breakfast & Brunch,Comfort Food",4155522469,"reservations, takeout, creditCard, bikeParking, goodForKids, goodForGroups, outdoorSeating, waiterService",94114,215 Church street
1174,Beso Bistronomia," Tapas/Small Plates,Spanish",4158015392,"reservations, takeout, creditCard, bikeParking, goodForGroups, outdoorSeating, waiterService",94114,4058 A 18th street
1175,Cha Cha Cha," Tapas Bars,Latin American",4153867670,"takeout, creditCard, bikeParking, goodForGroups, waiterService, caters",94117,1801 Haight street
1176,Poké Bar," Asian Fusion,Hawaiian,Poke",,"takeout, creditCard, applePay, bikeParking, goodForKids, goodForGroups",,
1177,Split Pea Seduction," Sandwiches,Soup,Salad",4155512223,"delivery, takeout, creditCard, bikeParking, caters",94103,138 6th street
1178,Mandalay, Burmese,4153863896,"reservations, takeout, creditCard, bikeParking, goodForKids, goodForGroups, waiterService, caters",94118,4348 California street
1179,Golden Era Vegan Restaurant," Vegan,Vietnamese,Juice Bars & Smoothies",4154878687,"reservations, takeout, creditCard, bikeParking, goodForKids, goodForGroups, waiterService",94102,395 Golden Gate avenue
1180,Destination Baking Company," Bakeries,Coffee & Tea",4154690730,"takeout, creditCard, bikeParking",94131,598 Chenery street
1181,Kava Lounge SF, Lounges,,"reservations, creditCard, bikeParking, goodForGroups",94115,901 Divisadero street
1182,Project Juice," Vegan,Juice Bars & Smoothies,Live/Raw Food",4156716820,"takeout, creditCard, applePay, bikeParking, goodForKids, goodForGroups, outdoorSeating",94110,790 Valencia street
1183,Eureka Restaurant &amp; Lounge," American (New),Southern",4154316000,"reservations, takeout, creditCard, bikeParking, goodForGroups, waiterService",94114,4063 18th street
1184,Big Chef Tom’s Belly Burgers, Burgers,4155131331,"delivery, takeout, creditCard, applePay, bikeParking, goodForKids, goodForGroups, hasTV, caters",94103,1550 Howard street
1185,Schmidt’s," German,Breakfast & Brunch,Bars",4154010200,"reservations, takeout, creditCard, bikeParking, goodForKids, goodForGroups, waiterService",94110,2400 Folsom street
1186,Manzoni, Italian,4153342251,"reservations, takeout, creditCard, bikeParking, goodForKids, goodForGroups, waiterService",94131,2788 Diamond street
1187,Vital Tea Leaf," Coffee & Tea,Tea Rooms",4159812388,"creditCard, bikeParking",94133,1044 Grant avenue
1188,The Occidental Cigar Club," Bars,Tobacco Shops",4158340485,"creditCard, goodForGroups, hasTV",94104,471 Pine street
1189,Thoughts Style Cuisine Showroom," Thai,Italian,Comfort Food",4152527919,"reservations, takeout, creditCard, bikeParking, goodForKids, goodForGroups, waiterService, caters",94103,139 8th street
1190,Manna, Korean,4156655969,"takeout, creditCard, bikeParking, goodForKids, waiterService",94122,845 Irving street
1191,Velvet Cantina," Mexican,Bars",4156484142,"reservations, takeout, creditCard, bikeParking, goodForGroups, waiterService",94110,3349 23rd street
1192,B Star Bar," Burmese,Asian Fusion,Breakfast & Brunch",4159339900,"reservations, takeout, creditCard, bikeParking, goodForKids, goodForGroups, outdoorSeating, waiterService",94118,127 Clement street
1193,Nopalito," Mexican,Gluten-Free",4154370303,"takeout, creditCard, bikeParking, goodForKids, goodForGroups, outdoorSeating, waiterService, caters",94117,306 Broderick street
1194,Little Nepal, Himalayan/Nepalese,4156433881,"reservations, delivery, takeout, creditCard, applePay, bikeParking, goodForKids, goodForGroups, waiterService, caters",94110,925 Cortland avenue
1195,Bloodhound, Cocktail Bars,4158632840,"creditCard, bikeParking, goodForGroups, hasTV",94103,1145 Folsom street
1196,Angkor Borei, Cambodian,4155508417,"reservations, delivery, takeout, creditCard, goodForKids, goodForGroups, waiterService, caters",94110,3471 Mission street
1197,Gracias Madre," Vegan,Mexican",4156831346,"reservations, takeout, creditCard, bikeParking, goodForKids, goodForGroups, outdoorSeating, waiterService",94110,2211 Mission street
1198,Helmand Palace," Afghan,Salad,Soup",4153450072,"reservations, delivery, takeout, creditCard, bikeParking, goodForKids, goodForGroups, waiterService, caters",94109,2424 Van Ness avenue
1199,Marnee Thai, Thai,4157319999,"reservations, delivery, takeout, creditCard, bikeParking, goodForKids, goodForGroups, waiterService, caters",94122,1243 9th avenue
1200,The Crafty Fox Ale House," Beer Bar,Sandwiches,Burgers",4154166602,"takeout, creditCard, bikeParking, goodForGroups, outdoorSeating, hasTV, caters",94103,1700 Mission street
1201,Mission Bowling Club," Bowling,Breakfast & Brunch,Cocktail Bars",4158632695,"reservations, creditCard, bikeParking, goodForGroups, outdoorSeating, hasTV, waiterService",94110,3176 17th street
1202,Tofino Wines," Wine Bars,Tapas/Small Plates",4158725782,"creditCard, bikeParking, goodForGroups, waiterService",94118,2696 Geary boulevard
1203,Fino Ristorante &amp; Bar, Italian,4159282080,"reservations, creditCard, goodForGroups, waiterService",94109,624 Post street
1204,Ananda Fuara," Vegetarian,Vegan,Breakfast & Brunch",4156211994,"takeout, creditCard, bikeParking, goodForKids, goodForGroups, waiterService",94102,1298 Market street
1205,Ritual Coffee Roasters, Coffee & Tea,4156411011,"takeout, creditCard, bikeParking",94110,1026 Valencia street
1206,Bangkok Bistro, Thai,4159358424,"reservations, delivery, takeout, creditCard, bikeParking, goodForKids, goodForGroups, hasTV, waiterService, caters",94110,530 Valencia street
1207,Siam Lotus Thai Cuisine, Thai,4159338031,"reservations, takeout, creditCard, bikeParking, goodForKids, goodForGroups, waiterService, caters",94117,1705 Haight street
1208,Ho’s Bootleg Tavern," American (New),Sports Bars",4158727773,"reservations, takeout, creditCard, bikeParking, goodForGroups, hasTV, waiterService",94109,2360 Van Ness avenue
1209,Ragazza," Italian,Pizza",4152551133,"takeout, creditCard, bikeParking, goodForKids, outdoorSeating, waiterService",94117,311 Divisadero street
1210,Mymy," Breakfast & Brunch,American (New)",4158007466,"takeout, creditCard, bikeParking, goodForKids, outdoorSeating, waiterService",94109,1500 California street
1211,Eight AM," American (New),Breakfast & Brunch",4152924888,"takeout, creditCard, applePay, bikeParking, goodForKids, goodForGroups, outdoorSeating, waiterService",94133,1323 Columbus avenue
1212,Sushi Bistro," Sushi Bars,Japanese",4159337100,"reservations, takeout, creditCard, goodForKids, goodForGroups, hasTV, waiterService, caters",94118,431 Balboa street
1213,Saffron Grill, Indian,4155675100,"reservations, delivery, takeout, creditCard, bikeParking, goodForKids, waiterService, caters",94117,1279 Fulton street
1214,Straw," American (New),Breakfast & Brunch",4154313663,"reservations, takeout, creditCard, bikeParking, goodForKids, outdoorSeating, waiterService, caters",94102,203 Octavia boulevard
1215,Yield Wine Bar, Wine Bars,4154018984,"creditCard, bikeParking, goodForGroups, outdoorSeating",94107,2490 3rd street
1216,Hog &amp; Rocks," Gastropubs,Breakfast & Brunch,Cocktail Bars",4155508627,"reservations, takeout, creditCard, bikeParking, goodForGroups, outdoorSeating, hasTV, waiterService",94110,3431 19th street
1217,Vital Tea Leaf," Coffee & Tea,Tea Rooms",4155449838,"takeout, creditCard",94108,509 Grant avenue
1218,Biergarten," German,Pubs",4152529289,"takeout, creditCard, bikeParking, goodForGroups, outdoorSeating",94102,424 Octavia street
1219,Hobson’s Choice, Bars,4156215859,"creditCard, bikeParking, goodForGroups, hasTV",94117,1601 Haight street
1220,Luisa’s Pizza And Pasta," Italian,Wine Bars,Pizza",4155634043,"reservations, takeout, creditCard, bikeParking, goodForKids, goodForGroups, outdoorSeating, waiterService",94109,1550 California street
1221,All Good Pizza," Pizza,Sandwiches,Salad",4159339384,"reservations, takeout, creditCard, applePay, bikeParking, goodForKids, goodForGroups, outdoorSeating, caters",94124,1605 Jerrold avenue
1222,Giordano Bros," Sports Bars,Sandwiches",4154372767,"takeout, creditCard, bikeParking, goodForGroups, outdoorSeating, hasTV, waiterService",94103,3108 16th street
1223,Internos Wine Cafe, Wine Bars,4157512661,"reservations, creditCard, goodForGroups, hasTV",94118,3240 Geary boulevard
1224,Azalina’s," Malaysian,Chicken Shop,Soup",4156602020,"delivery, takeout, creditCard, bikeParking, goodForKids, goodForGroups, outdoorSeating, hasTV, caters",94103,1355 Market street
1225,LaLe," Breakfast & Brunch,Mediterranean,Tapas/Small Plates",4155668814,"reservations, takeout, creditCard, goodForKids, goodForGroups, waiterService, caters",94122,731 Irving street
1226,Bar 821," Lounges,Cocktail Bars",,"creditCard, bikeParking, goodForGroups, hasTV",94117,821 Divisadero street
1227,Papito Potrero Hill, Mexican,4156950147,"takeout, creditCard, bikeParking, goodForKids, outdoorSeating, waiterService",94107,317 Connecticut street
1228,Crepevine Restaurant," Creperies,Breakfast & Brunch,American (New)",4156815858,"takeout, creditCard, bikeParking, goodForKids, goodForGroups, outdoorSeating, hasTV, waiterService",94122,624 Irving street
1229,Il Casaro Pizzeria &amp; Mozzarella Bar," Italian,Pizza",4156779455,"takeout, creditCard, bikeParking, goodForKids, goodForGroups, hasTV, waiterService, caters",94133,348 Columbus avenue
